Description,Title,State,Postcode,SiteCode,ContractType,SiteRating,StreamA,StreamB,StreamC,Specialisation,Location,Address,Phone,Latitude,Longitude,ServiceType,
,Vision Australia Limited,ACT,2600,A230,DESB,2,,,,Blind and Vision Impaired,BARTON,Suite 1a 3 Sydney Avenue,(02) 6132 5800,-35.31303646,149.13325740,,
"Job Centre Australia specialise in empowering people with adisability, illness or health condition to improve their circumstances through a range of training, support and employment opportunities under DES (Disability Employment Service) and NDIS (National Disability Insurance Scheme). We have over35 regional and metropolitan sites in NSW and QLD.",Job Centre Australia,NSW,2594,A290,DESB,3,,,,All Job Seekers,YOUNG,2B Campbell Street,(02) 6382 3222,-34.31470378,148.29436022,,
"Job Centre Australia specialise in empowering people with a disability, illness or health condition to improve their circumstances through a range of training, support and employment opportunities under DES (Disability Employment Service) and NDIS (National Disability Insurance Scheme). We have over 35 regional and metropolitan sites in NSW and QLD.",Job Centre Australia,NSW,2067,A340,DESB,3,,,,All Job Seekers,CHATSWOOD,Level 1 13 Spring Street,(02) 9413 1313,-33.79640109,151.18496351,,
"Jobfind is a one-stop-shop for training and employment. Gain the skills you need with our state-of-the-art training and let our dedicated consultants promote YOU to prospective employers. We have helped over half a million people across Australia into employment and we can help you too.  This site provides full time services Mon-Fri, 9am-5pm",Jobfind Centres Australia Pty Ltd,VIC,3121,A421,DESB,2,,,,All Job Seekers,RICHMOND,Level 2 585-587 Victoria Street,1300 360 562,-37.81095142,145.00617329,,
"Jobfind is a one-stop-shop for training and employment. Gain the skills you need with our state-of-the-art training and let our dedicated consultants promote YOU to prospective employers. We have helped over half a million people across Australia into employment and we can help you too.  This site provides full time services Mon-Fri, 9am-5pm",Jobfind Centres Australia Pty Ltd,VIC,3000,A431,DESB,3,,,,All Job Seekers,MELBOURNE,Level 8 190 Queen Street,(03) 8506 5970,-37.81402804,144.96067979,,
"Jobfind is a one-stop-shop for training and employment. Gain the skills you need with our state-of-the-art training and let our dedicated consultants promote YOU to prospective employers. We have helped over half a million people across Australia into employment and we can help you too.  This site provides full time services Mon-Fri, 9am-5pm",Jobfind Centres Australia Pty Ltd,VIC,3810,A441,DESB,5,,,,All Job Seekers,PAKENHAM,Shop 5 11 John Street,1300 360 562,-38.07672499,145.48296909,,
"Jobfind is a one-stop-shop for training and employment. Gain the skills you need with our state-of-the-art training and let our dedicated consultants promote YOU to prospective employers. We have helped over half a million people across Australia into employment and we can help you too.  This site provides full time services Mon-Fri, 9am-5pm",Jobfind Centres Australia Pty Ltd,VIC,3805,A451,DESB,2,,,,All Job Seekers,NARRE WARREN,Suite 12 26 Verdun Drive,1300 360 562,-38.02499779,145.31536605,,
"Jobfind is a one-stop-shop for training and employment. Gain the skills you need with our state-of-the-art training and let our dedicated consultants promote YOU to prospective employers. We have helped over half a million people across Australia into employment and we can help you too.  This site provides full time services Mon-Fri, 9am-5pm",Jobfind Centres Australia Pty Ltd,VIC,3977,A461,DESB,1,,,,All Job Seekers,CRANBOURNE,178 Sladen Street,1300 360 562,-38.11356769,145.28442766,,
"Jobfind is a one-stop-shop for training and employment. Gain the skills you need with our state-of-the-art training and let our dedicated consultants promote YOU to prospective employers. We have helped over half a million people across Australia into employment and we can help you too.  This site provides full time services Mon-Fri, 9am-5pm",Jobfind Centres Australia Pty Ltd,VIC,3171,A471,DESB,3,,,,All Job Seekers,SPRINGVALE,336-338 Springvale Rd,1300 360 562,-37.95665088,145.15100084,,
"Jobfind is a one-stop-shop for training and employment. Gain the skills you need with our state-of-the-art training and let our dedicated consultants promote YOU to prospective employers. We have helped over half a million people across Australia into employment and we can help you too.  This site provides full time services Mon-Fri, 9am-5pm",Jobfind Centres Australia Pty Ltd,VIC,3166,A481,DESB,2,,,,All Job Seekers,OAKLEIGH,Level 3 20 Atherton Rd,1300 360 562,-37.89888088,145.08940741,,
"Jobfind is a one-stop-shop for training and employment. Gain the skills you need with our state-of-the-art training and let our dedicated consultants promote YOU to prospective employers. We have helped over half a million people across Australia into employment and we can help you too.  This site provides full time services Mon-Fri, 9am-5pm",Jobfind Centres Australia Pty Ltd,VIC,3150,A491,DESB,2,,,,All Job Seekers,GLEN WAVERLEY,Suite 4 40 Montclair Avenue,1300 360 562,-37.88084362,145.16133660,,
"Jobfind is a one-stop-shop for training and employment. Gain the skills you need with our state-of-the-art training and let our dedicated consultants promote YOU to prospective employers. We have helped over half a million people across Australia into employment and we can help you too.  This site provides full time services Mon-Fri, 9am-5pm",Jobfind Centres Australia Pty Ltd,VIC,3175,A501,DESB,3,,,,All Job Seekers,DANDENONG,Level 1 237 Lonsdale Street,1300 360 562,-37.98797500,145.21395100,,
"Jobfind is a one-stop-shop for training and employment. Gain the skills you need with our state-of-the-art training and let our dedicated consultants promote YOU to prospective employers. We have helped over half a million people across Australia into employment and we can help you too.  This site provides full time services Mon-Fri, 9am-5pm",Jobfind Centres Australia Pty Ltd,VIC,3192,A511,DESB,2,,,,All Job Seekers,CHELTENHAM,Suite 1A 350 Charman Rd,1300 360 562,-37.96530413,145.05617335,,
"Jobfind is a one-stop-shop for training and employment. Gain the skills you need with our state-of-the-art training and let our dedicated consultants promote YOU to prospective employers. We have helped over half a million people across Australia into employment and we can help you too.  This site provides full time services Mon-Fri, 9am-5pm",Jobfind Centres Australia Pty Ltd,VIC,3124,A521,DESB,4,,,,All Job Seekers,CAMBERWELL,Level 3 697 Burke Road,1300 360 562,-37.83201095,145.05610685,,
"APM knows everyone faces challenges when looking for work.
We help you get the right support to find and keep a job.
We’re Australia’s largest DES provider.
With the strongest job placement rates, we help more people into work than anyone else.
You’ll find us here 9am to 5pm, Mon to Fri.
There’s a job out there for you, let’s go find it.",APM Employment Services,SA,5085,A531,DESB,5,,,,All Job Seekers,CLEARVIEW,Shop 7 254 Hampstead Road,(08) 8262 3098,-34.85873851,138.61778322,,
,Ostara Australia,NSW,2099,A551,DESB,1,,,,Mental Health,DEE WHY,1/683 Pittwater Road,(02) 9415 1301,-33.75319538,151.28532324,,
"At WISE Employment we specialise in helping people with diverse backgrounds find meaningful work. Through our DES program, we focus on what you’re good at and match your skills to the right job. We continue to support you as your confidence grows and you adjust to your new workplace. Our local team would love to meet you – let’s chat!",WISE Employment Ltd,SA,5046,A581,DESB,3,,,,All Job Seekers,OAKLANDS PARK,"Marion Cultural Centre, 287 Diagonal Road",(08) 8408 9220,-35.01364010,138.54338745,,
,OCTEC Limited,NSW,2486,A591,DESB,5,,,,All Job Seekers,BANORA POINT,"Banora Point Community Center, Woodlands Drive",(07) 5601 0218,-28.21500921,153.53027131,,
,OCTEC Limited,NSW,2489,A601,DESB,5,,,,All Job Seekers,POTTSVILLE,Pottsville Neighborhood Center 12A Elizabeth Street,(07) 5601 0218,-28.39036249,153.56422114,,
,OCTEC Limited,NSW,2480,A611,DESB,4,,,,All Job Seekers,GOONELLABAH,"Goonellabah Community Center, 27 Oliver Ave",(02) 6622 0305,-28.82494301,153.32623274,,
,Joblife Employment,TAS,7249,A631,DESB,3,,,,All Job Seekers,KINGS MEADOWS,16 - 18 Reuben Court,1800 319 502,-41.46682253,147.15836107,,
"We’re atWork Australia, an employment services provider helping Australians with disability, illness or injury find meaningful and lasting employment. We work hard to find the right person the right job, and have been doing so for over 15 years. 
Let’s get started, call us today on 1300 080 856.",Atwork Australia Pty Ltd,NSW,2263,A671,DESB,1,,,,All Job Seekers,GOROKAN,"Lake Haven Recreation Centre, Goobarabah Ave",1300 080 856,-33.24438840,151.51082046,,
"We’re atWork Australia, an employment services provider helping Australians with disability, illness or injury find meaningful and lasting employment. We work hard to find the right person the right job, and have been doing so for over 15 years. 
Let’s get started, call us today on 1300 080 856.",Atwork Australia Pty Ltd,NSW,2164,A681,DESB,3,,,,All Job Seekers,WETHERILL PARK,"Wetherill Park Library, 561-583 Polding St",1300 080 856,-33.85768309,150.89874253,,
"We’re atWork Australia, an employment services provider helping Australians with disability, illness or injury find meaningful and lasting employment. We work hard to find the right person the right job, and have been doing so for over 15 years. 
Let’s get started, call us today on 1300 080 856.",Atwork Australia Pty Ltd,NSW,2559,A691,DESB,5,,,,All Job Seekers,CLAYMORE,"Claymore Opportunity Hub, Cnr Gould & Dobell Rd",1300 080 856,-34.04485005,150.80718390,,
"We’re atWork Australia, an employment services provider helping Australians with disability, illness or injury find meaningful and lasting employment. We work hard to find the right person the right job, and have been doing so for over 15 years. 
Let’s get started, call us today on 1300 080 856.",Atwork Australia Pty Ltd,NSW,2145,A701,DESB,1,,,,All Job Seekers,WENTWORTHVILLE,"Office 1, 1-5 Dunmore Street,",1300 080 856,-33.80730149,150.97008970,,
"We’re atWork Australia, formerly NORTEC, an employment services provider helping Australians with disability, illness or injury find meaningful and lasting employment.We work hard to find the right person the right job, and have been doing so for over 15 years. Let’s get started, callus today on 1300 080 856.",Atwork Australia Pty Ltd,NSW,2483,A751,DESB,2,,,,All Job Seekers,OCEAN SHORES,84 Rajah Road Shop 9 Ocean Village Shopping Centre,1300 080 856,-28.52440107,153.54604510,,
"We’re atWork Australia, formerly NORTEC, an employment services provider helping Australians with disability, illness or injury find meaningful and lasting employment.We work hard to find the right person the right job, and have been doing so for over 15 years. Let’s get started, callus today on 1300 080 856.",Atwork Australia Pty Ltd,NSW,2481,A761,DESB,3,,,,All Job Seekers,BYRON BAY,"Unit 6, 14 Middleton Street",1300 080 856,-28.64448368,153.61466200,,
"We’re atWork Australia, formerly NORTEC, an employment services provider helping Australians with disability, illness or injury find meaningful and lasting employment.We work hard to find the right person the right job, and have been doing so for over 15 years. Let’s get started, callus today on 1300 080 856.",Atwork Australia Pty Ltd,NSW,2478,A771,DESB,3,,,,All Job Seekers,BALLINA,"Shop 27, Ballina Central Central S/C, 44 Bangalow Rd,",1300 080 856,-28.85847397,153.56197118,,
"We’re atWork Australia, an employment services provider helping Australians with disability, illness or injury find meaningful and lasting employment. We work hard to find the right person the right job, and have been doing so for over 15 years. 
Let’s get started, call us today on 1300 080 856.",Atwork Australia Pty Ltd,NSW,2454,A781,DESB,3,,,,All Job Seekers,BELLINGEN,Bello Youth Hub Cnr Church & William St,1300 080 856,-30.45237152,152.89207167,,
"We’re atWork Australia, an employment services provider helping Australians with disability, illness or injury find meaningful and lasting employment. We work hard to find the right person the right job, and have been doing so for over 15 years. 
Let’s get started, call us today on 1300 080 856.",Atwork Australia Pty Ltd,NSW,2447,A791,DESB,1,,,,All Job Seekers,MACKSVILLE,Shop 4 10-12 Princess St,1300 080 856,-30.72150566,152.91729339,,
"We’re atWork Australia, an employment services provider helping Australians with disability, illness or injury find meaningful and lasting employment. We work hard to find the right person the right job, and have been doing so for over 15 years. 
Let’s get started, call us today on 1300 080 856.",Atwork Australia Pty Ltd,NSW,2456,A801,DESB,2,,,,All Job Seekers,WOOLGOOLGA,35 Beach St Woolgoolga Neighbourhood Centre,1300 080 856,-30.09962942,153.16343687,,
,OCTEC Limited,VIC,3612,A821,DESB,New,,,,All Job Seekers,RUSHWORTH,67 High Street,(03) 5858 1735,-36.58967708,145.01640727,,
"We’re atWork Australia, an employment services provider helping Australians with disability, illness or injury find meaningful and lasting employment. We work hard to find the right person the right job, and have been doing so for over 15 years. 
Let’s get started, call us today on 1300 080 856.",Atwork Australia Pty Ltd,SA,5159,A831,DESB,4,,,,All Job Seekers,ABERFOYLE PARK,"Aberfoyle Community Centre, 1 Jessica St",1300 080 856,-35.07777261,138.58989172,,
"We’re atWork Australia, an employment services provider helping Australians with disability, illness or injury find meaningful and lasting employment. We work hard to find the right person the right job, and have been doing so for over 15 years. 
Let’s get started, call us today on 1300 080 856.",Atwork Australia Pty Ltd,SA,5163,A841,DESB,4,,,,All Job Seekers,HACKHAM WEST,"Hackham West Community Centre, 44 Glynville Dr",1300 080 856,-35.14180966,138.51514802,,
"We’re atWork Australia, an employment services provider helping Australians with disability, illness or injury find meaningful and lasting employment. We work hard to find the right person the right job, and have been doing so for over 15 years. 
Let’s get started, call us today on 1300 080 856.",Atwork Australia Pty Ltd,SA,5162,A851,DESB,4,,,,All Job Seekers,MORPHETT VALE,"Wakefield House, 65 Acres Ave 1300080856",1300 080 856,-35.11125513,138.51669251,,
"We’re atWork Australia, an employment services provider helping Australians with disability, illness or injury find meaningful and lasting employment. We work hard to find the right person the right job, and have been doing so for over 15 years. 
Let’s get started, call us today on 1300 080 856.",Atwork Australia Pty Ltd,SA,5013,A861,DESB,3,,,,All Job Seekers,OTTOWAY,"Junction Community Centre, 2A May Tce",1300 080 856,-34.85116347,138.52740330,,
"We’re atWork Australia, an employment services provider helping Australians with disability, illness or injury find meaningful and lasting employment. We work hard to find the right person the right job, and have been doing so for over 15 years. 
Let’s get started, call us today on 1300 080 856.",Atwork Australia Pty Ltd,SA,5033,A871,DESB,3,,,,All Job Seekers,COWANDILLA,"Western Youth Centre, 79 Marion Rd",1300 080 856,-34.93114090,138.55271255,,
"We’re atWork Australia, an employment services provider helping Australians with disability, illness or injury find meaningful and lasting employment. We work hard to find the right person the right job, and have been doing so for over 15 years. 
Let’s get started, call us today on 1300 080 856.",Atwork Australia Pty Ltd,SA,5115,A891,DESB,1,,,,All Job Seekers,MUNNO PARA,"Stretton Centre, 307 Peachy Rd",1300 080 856,-34.66954306,138.68049800,,
"We’re atWork Australia, an employment services provider helping Australians with disability, illness or injury find meaningful and lasting employment. We work hard to find the right person the right job, and have been doing so for over 15 years. 
Let’s get started, call us today on 1300 080 856.",Atwork Australia Pty Ltd,SA,5095,A901,DESB,1,,,,All Job Seekers,MAWSON LAKES,Shop 2 21-25 Goodall Pde,1300 080 856,-34.80749112,138.61622490,,
,OCTEC Limited,VIC,3023,A911,DESB,New,,,,All Job Seekers,DEER PARK,"93B Station Road,",(03) 8798 9572,-37.77067307,144.77427737,,
,OCTEC Limited,VIC,3976,A931,DESB,3,,,,All Job Seekers,HAMPTON PARK,Shop 5/25 Fordholm Road,(03) 8798 9572,-38.03863226,145.26866179,,
,OCTEC Limited,VIC,3075,A941,DESB,3,,,,All Job Seekers,LALOR,47A French Street,(03) 8798 9572,-37.67311230,145.01863205,,
"We’re atWork Australia, an employment services provider helping Australians with disability, illness or injury find meaningful and lasting employment. We work hard to find the right person the right job, and have been doing so for over 15 years. 
Let’s get started, call us today on 1300 080 856.",Atwork Australia Pty Ltd,VIC,3352,A951,DESB,1,,,,All Job Seekers,LEXTON,"Lexton Community Centre, 14 Williamson Street",1300 080 856,-37.27418900,143.51643400,,
"We’re atWork Australia, an employment services provider helping Australians with disability, illness or injury find meaningful and lasting employment. We work hard to find the right person the right job, and have been doing so for over 15 years. 
Let’s get started, call us today on 1300 080 856.",Atwork Australia Pty Ltd,NSW,2340,A961,DESB,1,,,,All Job Seekers,SOUTH TAMWORTH,74a Robert Street,1300 080 856,-31.10880887,150.90865045,,
"We’re atWork Australia, an employment services provider helping Australians with disability, illness or injury find meaningful and lasting employment. We work hard to find the right person the right job, and have been doing so for over 15 years. 
Let’s get started, call us today on 1300 080 856.",Atwork Australia Pty Ltd,QLD,4814,A971,DESB,3,,,,All Job Seekers,AITKENVALE,"Ground Level, 85 Patrick Street,",1300 080 856,-19.29822662,146.76594875,,
,AimBig Employment,NSW,2220,A981,DESB,4,,,,All Job Seekers,HURSTVILLE,6 112 Queens Road,1300 034 997,-33.96379622,151.10182083,,
,AimBig Employment,NSW,2228,A991,DESB,5,,,,All Job Seekers,MIRANDA,"Level 1, 29 Kiora Road",1300 034 997,-34.03312903,151.10181327,,
,AimBig Employment,NSW,2750,AA01,DESB,3,,,,All Job Seekers,PENRITH,"Suite 2001, Level 2, 21-23 Station St",1300 034 997,-33.75658104,150.69179392,,
,AimBig Employment,NSW,2565,AA11,DESB,3,,,,All Job Seekers,INGLEBURN,Suites B & C 25 Oxford Road,1300 034 997,-33.99863414,150.86576365,,
,AimBig Employment,NSW,2560,AA21,DESB,4,,,,All Job Seekers,CAMPBELLTOWN,Suite 1 167-169 Queen Street,1300 034 997,-34.06667909,150.81388032,,
,AimBig Employment,NSW,2170,AA41,DESB,5,,,,All Job Seekers,LIVERPOOL,"Suite 9, Level 1, 153 George St",1300 034 997,-33.92121540,150.92482952,,
,AimBig Employment,NSW,2010,AA51,DESB,4,,,,All Job Seekers,SURRY HILLS,Ground Floor 55-57 Cooper Street,1300 034 997,-33.88566442,151.21201790,,
,AimBig Employment,NSW,2010,AA61,DESB,5,,,,All Job Seekers,DARLINGHURST,25 2-14 Bayswater Road,1300 034 997,-33.87468936,151.22299513,,
,AimBig Employment,NSW,2204,AA71,DESB,5,,,,All Job Seekers,MARRICKVILLE,1/70 Shepherd Street,1300 034 997,-33.90496244,151.16235913,,
,AimBig Employment,NSW,2040,AA81,DESB,5,,,,All Job Seekers,LEICHHARDT,"Suite 47B, 21-23 Norton St",1300 034 997,-33.88721100,151.15837770,,
,AimBig Employment,NSW,2165,AA91,DESB,5,,,,All Job Seekers,FAIRFIELD,Shop 7 36 Ware Street,1300 034 997,-33.87179235,150.95554741,,
,AimBig Employment,NSW,2166,AB01,DESB,5,,,,All Job Seekers,CABRAMATTA,First Floor Suite 7/90 John Street,1300 034 997,-33.89523611,150.93493981,,
,AimBig Employment,NSW,2150,AB11,DESB,5,,,,All Job Seekers,PARRAMATTA,"Level 1 Suite 2, 11-13 Aird Street",1300 034 997,-33.81747002,150.99974951,,
,AimBig Employment,NSW,2153,AB21,DESB,5,,,,All Job Seekers,BAULKHAM HILLS,Nexus Norwest Level 5 4 Columbia Court,1300 034 997,-33.73099943,150.96949451,,
,AimBig Employment,NSW,2144,AB31,DESB,5,,,,All Job Seekers,AUBURN,8A 1-5 Harrow Road,1300 034 997,-33.85076533,151.03132955,,
,AimBig Employment,QLD,4455,AB41,DESB,4,,,,All Job Seekers,ROMA,57 Bungil Street,1300 034 997,-26.56877349,148.78807662,,
,AimBig Employment,QLD,4405,AB51,DESB,5,,,,All Job Seekers,DALBY,106 Cunningham Street,1300 034 997,-27.18216389,151.26477114,,
,AimBig Employment,QLD,4413,AB61,DESB,2,,,,All Job Seekers,CHINCHILLA,Bass House 67-71 Middle Street,1300 034 997,-26.74295127,150.62722338,,
,AimBig Employment,QLD,4415,AB71,DESB,4,,,,All Job Seekers,MILES,73A Murilla street,1300 034 997,-26.65915989,150.18618642,,
,AimBig Employment,VIC,3220,AB91,DESB,Rating unavailable,,,,All Job Seekers,GEELONG,Suite 1 128 Yarra Street,1300 034 997,-38.15155390,144.36121747,,
"MAX Employment assists thousands of customers into work every year, delivering services from 250 offices across every Australian state and territory. Through our business and community network we link customers to jobs across multiple industries.We deliver Disability Employment Services on behalf of the Australian Govt.
This site operates Mon-Fri 8:30am-5pm",MAX Employment,NT,0810,ABRZ,DESB,2,,,,All Job Seekers,CASUARINA,2A Cascom Centre 13-17 Scaturchio St,(08) 8999 0300,-12.37254865,130.88109701,,
,AimBig Employment,VIC,3465,AC01,DESB,Rating unavailable,,,,All Job Seekers,MARYBOROUGH,23 Primrose Street,1300 034 997,-37.04413953,143.75190170,,
,AimBig Employment,VIC,3550,AC21,DESB,Rating unavailable,,,,All Job Seekers,BENDIGO,1/59 King Street,1300 034 997,-36.76401216,144.27813644,,
,Aimbig Employment,TAS,7250,AC31,DESB,Rating unavailable,,,,All Job Seekers,LAUNCESTON,"1st Floor, 28 Brisbane St",1300 034 997,-41.43496782,147.14164409,,
,AimBig Employment,TAS,7109,AC41,DESB,3,,,,All Job Seekers,HUONVILLE,1 Skinner Drive,1300 034 997,-43.03138249,147.04972289,,
,AimBig Employment,TAS,7000,AC51,DESB,3,,,,All Job Seekers,HOBART,336 Elizabeth Street,1300 034 997,-42.87509308,147.31706815,,
,AimBig Employment,TAS,7010,AC61,DESB,3,,,,All Job Seekers,GLENORCHY,4 Terry Street,1300 034 997,-42.83441912,147.27520459,,
,AimBig Employment,TAS,7018,AC71,DESB,3,,,,All Job Seekers,ROSNY PARK,46 Bligh Street,1300 034 997,-42.86358134,147.36998305,,
,AimBig Employment,NT,0810,AC81,DESB,3,,,,All Job Seekers,WANGURI,"Unit 5, 25 Vanderlin Dr",1300 034 997,-12.37635861,130.88594778,,
,AimBig Employment,NT,0828,AC91,DESB,3,,,,All Job Seekers,BERRIMAH,Tenancy 17 641 Stuart Highway Berrimah Business Centre,1300 034 997,-12.43499511,130.92611743,,
,Darwin Skills Development Scheme,NT,0810,ACFZ,DESB,2,,,,All Job Seekers,COCONUT GROVE,1 Tang Street,(08) 8948 9999,-12.39915100,130.85259000,,
,AimBig Employment,NSW,2470,AD01,DESB,1,,,,All Job Seekers,CASINO,35 Walker Street,1300 034 997,-28.86589708,153.04811024,,
,AimBig Employment,NSW,2480,AD11,DESB,1,,,,All Job Seekers,LISMORE,"Ground Floor, 49 Carrington St",1300 034 997,-28.81064108,153.27557485,,
,AimBig Employment,NSW,2360,AD21,DESB,5,,,,All Job Seekers,INVERELL,3 Glen Innes Rd,1300 034 997,-29.77914087,151.11543381,,
,AimBig Employment,NSW,2370,AD31,DESB,5,,,,All Job Seekers,GLEN INNES,371 Grey Street,1300 034 997,-29.73543305,151.73651583,,
,AimBig Employment,NSW,2444,AD41,DESB,Rating unavailable,,,,All Job Seekers,PORT MACQUARIE,"Suite 10, Level 1, 106 William Street",1300 034 997,-31.43145652,152.90935446,,
,AimBig Employment,NSW,2450,AD51,DESB,Rating unavailable,,,,All Job Seekers,COFFS HARBOUR,Level 3 22 Park Avenue,1300 034 997,-30.29869750,153.11462764,,
,AimBig Employment,NSW,2448,AD61,DESB,Rating unavailable,,,,All Job Seekers,NAMBUCCA HEADS,47B Bowra Street,1300 034 997,-30.64129704,153.00118363,,
,AimBig Employment,VIC,3064,AD71,DESB,5,,,,All Job Seekers,CRAIGIEBURN,75-95 Central park Avenue,1300 034 997,-37.59026099,144.90924842,,
,AimBig Employment,VIC,3039,AD81,DESB,5,,,,All Job Seekers,MOONEE PONDS,"Level 5, 641 Mount Alexander Road,",1300 034 997,-37.76648510,144.92413738,,
,AimBig Employment,VIC,3047,AD91,DESB,5,,,,All Job Seekers,BROADMEADOWS,1093 Pascoe Vale Road,1300 034 997,-37.68281175,144.91866250,,
,AimBig Employment,NSW,2330,AE01,DESB,Rating unavailable,,,,All Job Seekers,SINGLETON,Shop 8 54-56 John Street,1300 034 997,-32.56764524,151.16381006,,
,AimBig Employment,NSW,2292,AE11,DESB,1,,,,All Job Seekers,BROADMEADOW,51 Broadmeadow Road,1300 034 997,-32.91458953,151.73297856,,
,AimBig Employment,NSW,2380,AE21,DESB,3,,,,All Job Seekers,GUNNEDAH,Office 5 Germane House 285 Conadilly Street,1300 034 997,-30.97918502,150.25555297,,
,AimBig Employment,NSW,2340,AE31,DESB,3,,,,All Job Seekers,TAMWORTH,2/235 Peel Street,1300 034 997,-31.08841806,150.92739077,,
,AimBig Employment,NSW,2325,AE41,DESB,3,,,,All Job Seekers,CESSNOCK,7/34 Vincent Street,1300 034 997,-32.83382613,151.35684020,,
,AimBig Employment,NSW,2320,AE51,DESB,4,,,,All Job Seekers,MAITLAND,499 High St,1300 034 997,-32.73074945,151.55229938,,
,AimBig Employment,NSW,2259,AE61,DESB,3,,,,All Job Seekers,WYONG,84 Pacific Highway,1300 034 997,-33.28499016,151.42439879,,
,AimBig Employment,NSW,2256,AE71,DESB,3,,,,All Job Seekers,WOY WOY,93 McMasters Road,1300 034 997,-33.49980463,151.32071010,,
,AimBig Employment,NSW,2259,AE81,DESB,4,,,,All Job Seekers,KANWAL,A3 654 Pacific Highway Kanwal Medical Centre,1300 034 997,-33.26280860,151.48477301,,
,AimBig Employment,NSW,2250,AE91,DESB,2,,,,All Job Seekers,GOSFORD,"Shop 6, 110 Erina Street",1300 034 997,-33.42409132,151.34115038,,
     ,STEPS Employment Solutions,NT,0871,AJVZ,DESB,Rating unavailable,,,,All Job Seekers,ALICE SPRINGS,Shop 9 Jock Nelson Centre 16 Hartley Street,(08) 8950 7600,-23.69756600,133.88179300,,
"Where others see problems, we see possibilities.
We’ve been believing in people for more than 30 years, it’s a part of who we are.
We want to hear your story, so we can help find opportunities.
We don’t just team up with you, we get in your corner. Because sometimes just knowing someone has your back, is all you need to take the next step...
",Campbell Page,NSW,2204,AK00,DESB,5,,,,All Job Seekers,MARRICKVILLE,"Unit 1, 55 Warren Rd",(02) 9103 8600,-33.91603973,151.15089464,,
"Where others see problems, we see possibilities.
We’ve been believing in people for more than 30 years, it’s a part of who we are.
We want to hear your story, so we can help find opportunities.
We don’t just team up with you, we get in your corner. Because sometimes just knowing someone has your back, is all you need to take the next step...
",Campbell Page,VIC,3076,AK30,DESB,4,,,,All Job Seekers,EPPING,"Shop 111, Pacific Epping 571 High Street",(03) 9046 5890,-37.65357915,145.01892434,,
"We’re atWork Australia, an employment services provider helping Australians with disability, illness or injury find meaningful and lasting employment. We work hard to find the right person the right job, and have been doing so for over 15 years. 
Let’s get started, call us today on 1300 080 856.",Atwork Australia Pty Ltd,VIC,3820,AN06,DESB,3,,,,All Job Seekers,WARRAGUL,43 Queen Street,1300 080 856,-38.16289389,145.92914349,,
"We’re atWork Australia, an employment services provider helping Australians with disability, illness or injury find meaningful and lasting employment. We work hard to find the right person the right job, and have been doing so for over 15 years. 
Let’s get started, call us today on 1300 080 856.",Atwork Australia Pty Ltd,VIC,3995,AN16,DESB,3,,,,All Job Seekers,WONTHAGGI,56 McBride Avenue,1300 080 856,-38.60662753,145.59095676,,
"We’re atWork Australia, an employment services provider helping Australians with disability, illness or injury find meaningful and lasting employment. We work hard to find the right person the right job, and have been doing so for over 15 years. 
Let’s get started, call us today on 1300 080 856.",Atwork Australia Pty Ltd,VIC,3564,AN36,DESB,2,,,,All Job Seekers,ECHUCA,Echuca Neighbourhood House 261 High St,1300 080 856,-36.14424984,144.75171821,,
"We’re atWork Australia, an employment services provider helping Australians with disability, illness or injury find meaningful and lasting employment. We work hard to find the right person the right job, and have been doing so for over 15 years. 
Let’s get started, call us today on 1300 080 856.",Atwork Australia Pty Ltd,VIC,3630,AN46,DESB,3,,,,All Job Seekers,SHEPPARTON,196 – 202 High St The Play Lab,1300 080 856,-36.38220457,145.40485229,,
"We’re atWork Australia, formerly Multiple Solutions, an employment services provider helping Australians with disability, illness or injury find meaningful and lasting employment. We work hard to find the right person the right job, and have been doing so for over 15 years. Let’s get started, call us today on 1300 080 856.",Atwork Australia Pty Ltd,TAS,7250,AN76,DESB,3,,,,All Job Seekers,LAUNCESTON,8 Willis Street,1300 080 856,-41.43114367,147.14114274,,
"We’re atWork Australia, an employment services provider helping Australians with disability, illness or injury find meaningful and lasting employment. We work hard to find the right person the right job, and have been doing so for over 15 years. Let’s get started, call us today on 1300 080 856.
",Atwork Australia Pty Ltd,TAS,7019,AN86,DESB,4,,,,All Job Seekers,ROKEBY,"Clarence Plains Community Health Centre, 4 Hart Place",1300 080 856,-42.89656794,147.43100519,,
"We’re atWork Australia, an employment services provider helping Australians with disability, illness or injury find meaningful and lasting employment. We work hard to find the right person the right job, and have been doing so for over 15 years. Let’s get started, call us today on 1300 080 856.
",Atwork Australia Pty Ltd,TAS,7010,AN96,DESB,4,,,,All Job Seekers,GLENORCHY,Glenorchy LINC (Library) 4 Terry St,1300 080 856,-42.83441912,147.27520459,,
"We’re atWork Australia, an employment services provider helping Australians with disability, illness or injury find meaningful and lasting employment. We work hard to find the right person the right job, and have been doing so for over 15 years. Let’s get started, call us today on 1300 080 856.
",Atwork Australia Pty Ltd,TAS,7030,AO06,DESB,4,,,,All Job Seekers,BRIDGEWATER,Brighton Community Health Ctr 27 Green Point Rd,1300 080 856,-42.73944938,147.24434225,,
"We’re atWork Australia, an employment services provider helping Australians with disability, illness or injury find meaningful and lasting employment. We work hard to find the right person the right job, and have been doing so for over 15 years. Let’s get started, call us today on 1300 080 856.
",Atwork Australia Pty Ltd,TAS,7000,AO16,DESB,4,,,,All Job Seekers,HOBART,5/21 Bathurst St,1300 080 856,-42.87849176,147.32853422,,
"We’re atWork Australia, an employment services provider helping Australians with disability, illness or injury find meaningful and lasting employment. We work hard to find the right person the right job, and have been doing so for over 15 years. 
Let’s get started, call us today on 1300 080 856.",Atwork Australia Pty Ltd,NSW,2448,AO26,DESB,2,,,,All Job Seekers,NAMBUCCA HEADS,Nambucca Community & Arts Centre Ridge St,1300 080 856,-30.64203994,153.00482208,,
"We’re atWork Australia, an employment services provider helping Australians with disability, illness or injury find meaningful and lasting employment. We work hard to find the right person the right job, and have been doing so for over 15 years. 
Let’s get started, call us today on 1300 080 856.",Atwork Australia Pty Ltd,NSW,2450,AO36,DESB,2,,,,All Job Seekers,COFFS HARBOUR,"Suite 3, 129 West High St,",1300 080 856,-30.29529623,153.11281139,,
"We’re atWork Australia, an employment services provider helping Australians with disability, illness or injury find meaningful and lasting employment. We work hard to find the right person the right job, and have been doing so for over 15 years. 
Let’s get started, call us today on 1300 080 856.",Atwork Australia Pty Ltd,VIC,3073,AO46,DESB,2,,,,All Job Seekers,RESERVOIR,333 - 335 Spring Street,1300 080 856,-37.71397050,145.00777000,,
"We’re atWork Australia, an employment services provider helping Australians with disability, illness or injury find meaningful and lasting employment. We work hard to find the right person the right job, and have been doing so for over 15 years. 
Let’s get started, call us today on 1300 080 856.",Atwork Australia Pty Ltd,VIC,3754,AO56,DESB,1,,,,All Job Seekers,MERNDA,70 Mernda Village Drive,1300 080 856,-37.59372914,145.09115787,,
"We’re atWork Australia, an employment services provider helping Australians with disability, illness or injury find meaningful and lasting employment. We work hard to find the right person the right job, and have been doing so for over 15 years. 
Let’s get started, call us today on 1300 080 856.",Atwork Australia Pty Ltd,VIC,3075,AO66,DESB,3,,,,All Job Seekers,LALOR,Mediplex 6 Messmate St,1300 080 856,-37.67449100,145.01780100,,
"We’re atWork Australia, an employment services provider helping Australians with disability, illness or injury find meaningful and lasting employment. We work hard to find the right person the right job, and have been doing so for over 15 years. 
Let’s get started, call us today on 1300 080 856.",Atwork Australia Pty Ltd,VIC,3084,AO76,DESB,2,,,,All Job Seekers,HEIDELBERG,Total Physiocare 70 Yarra St,1300 080 856,-37.75766300,145.06275700,,
"We’re atWork Australia, an employment services provider helping Australians with disability, illness or injury find meaningful and lasting employment. We work hard to find the right person the right job, and have been doing so for over 15 years. 
Let’s get started, call us today on 1300 080 856.",Atwork Australia Pty Ltd,VIC,3134,AO86,DESB,3,,,,All Job Seekers,RINGWOOD,"Building B, 46 Warrandyte Road,",1300 080 856,-37.80918652,145.23196433,,
"We’re atWork Australia, an employment services provider helping Australians with disability, illness or injury find meaningful and lasting employment. We work hard to find the right person the right job, and have been doing so for over 15 years. 
Let’s get started, call us today on 1300 080 856.",Atwork Australia Pty Ltd,VIC,3138,AO96,DESB,3,,,,All Job Seekers,MOOROOLBARK,"Mooroolbark Community Centre, 125 Brice Ave",1300 080 856,-37.78470704,145.31821332,,
"We’re atWork Australia, an employment services provider helping Australians with disability, illness or injury find meaningful and lasting employment. We work hard to find the right person the right job, and have been doing so for over 15 years. 
Let’s get started, call us today on 1300 080 856.",Atwork Australia Pty Ltd,VIC,3156,AP06,DESB,2,,,,All Job Seekers,FERNTREE GULLY,Each 1063 Burwood Hwy,1300 080 856,-37.88847015,145.29409713,,
"We’re atWork Australia, an employment services provider helping Australians with disability, illness or injury find meaningful and lasting employment. We work hard to find the right person the right job, and have been doing so for over 15 years. 
Let’s get started, call us today on 1300 080 856.",Atwork Australia Pty Ltd,VIC,3136,AP16,DESB,3,,,,All Job Seekers,CROYDON,Shop A 211 Mt Dandenong Road,1300 080 856,-37.79855371,145.28169063,,
"We’re atWork Australia, an employment services provider helping Australians with disability, illness or injury find meaningful and lasting employment. We work hard to find the right person the right job, and have been doing so for over 15 years. 
Let’s get started, call us today on 1300 080 856.",Atwork Australia Pty Ltd,VIC,3205,AP26,DESB,2,,,,All Job Seekers,SOUTH MELBOURNE,219 Park St,1300 080 856,-37.83590192,144.96117309,,
"We’re atWork Australia, an employment services provider helping Australians with disability, illness or injury find meaningful and lasting employment. We work hard to find the right person the right job, and have been doing so for over 15 years. 
Let’s get started, call us today on 1300 080 856.",Atwork Australia Pty Ltd,VIC,3121,AP36,DESB,2,,,,All Job Seekers,RICHMOND,143 Kent Street,1300 080 856,-37.81493144,145.00631657,,
"We’re atWork Australia, an employment services provider helping Australians with disability, illness or injury find meaningful and lasting employment. We work hard to find the right person the right job, and have been doing so for over 15 years. 
Let’s get started, call us today on 1300 080 856.",Atwork Australia Pty Ltd,VIC,3000,AP46,DESB,2,,,,All Job Seekers,MELBOURNE,Level 1 287 Collins Street,1300 080 856,-37.81633986,144.96443793,,
"We’re atWork Australia, an employment services provider helping Australians with disability, illness or injury find meaningful and lasting employment. We work hard to find the right person the right job, and have been doing so for over 15 years. 
Let’s get started, call us today on 1300 080 856.",Atwork Australia Pty Ltd,VIC,3020,AP56,DESB,1,,,,All Job Seekers,SUNSHINE,"Shop 42, Sunshine Plaza 324/328 Hampshire Road",1300 080 856,-37.78209243,144.83287702,,
"We’re atWork Australia, an employment services provider helping Australians with disability, illness or injury find meaningful and lasting employment. We work hard to find the right person the right job, and have been doing so for over 15 years. 
Let’s get started, call us today on 1300 080 856.",Atwork Australia Pty Ltd,VIC,3015,AP66,DESB,2,,,,All Job Seekers,NEWPORT,"Newport Community Hub, 13/15 Mason St,",1300 080 856,-37.84311132,144.88190879,,
"We’re atWork Australia, an employment services provider helping Australians with disability, illness or injury find meaningful and lasting employment. We work hard to find the right person the right job, and have been doing so for over 15 years. 
Let’s get started, call us today on 1300 080 856.",Atwork Australia Pty Ltd,VIC,3023,AP76,DESB,1,,,,All Job Seekers,CAROLINE SPRINGS,10 Stevenson Crescent Stevenson House,1300 080 856,-37.74589062,144.73910845,,
"We’re atWork Australia, an employment services provider helping Australians with disability, illness or injury find meaningful and lasting employment. We work hard to find the right person the right job, and have been doing so for over 15 years. 
Let’s get started, call us today on 1300 080 856.",Atwork Australia Pty Ltd,VIC,3030,AP86,DESB,1,,,,All Job Seekers,WERRIBEE,"7 Bridge St Lvl 1, Room 4, Wyndham Business Centre",1300 080 856,-37.90281373,144.66005600,,
"EPIC Assist has been helping people with disability secure meaningful, sustainable employment for almost 30 years. We understand the importance of staying on your employment journey for as long as you need us. We don’t walk away; we provide on-the-job, individualised support for each and every person. We'll work with you to help you realise what's possible.",Epic Employment Service Inc,QLD,4507,AP90,DESB,3,,,,All Job Seekers,BELLARA,"Bribie Island Neighbourhood Centre, 9 Verdoni St",(07) 3410 8944,-27.06116754,153.14567805,,
"We’re atWork Australia, an employment services provider helping Australians with disability, illness or injury find meaningful and lasting employment. We work hard to find the right person the right job, and have been doing so for over 15 years. 
Let’s get started, call us today on 1300 080 856.",Atwork Australia Pty Ltd,VIC,3337,AP96,DESB,1,,,,All Job Seekers,MELTON,"Units 3-5, 8 & 9, 3 Alexandra St",1300 080 856,-37.68416019,144.57993209,,
"EPIC Assist has been helping people with disability secure meaningful, sustainable employment for almost 30 years. We understand the importance of staying on your employment journey for as long as you need us. We don’t walk away; we provide on-the-job, individualised support for each and every person. We'll work with you to help you realise what's possible.",Epic Employment Service Inc,QLD,4551,AQ00,DESB,5,,,,All Job Seekers,CALOUNDRA,101 Bulcock Street,(07) 5491 1711,-26.80422874,153.12899026,,
"We’re atWork Australia, an employment services provider helping Australians with disability, illness or injury find meaningful and lasting employment. We work hard to find the right person the right job, and have been doing so for over 15 years. 
Let’s get started, call us today on 1300 080 856.",Atwork Australia Pty Ltd,VIC,3939,AQ06,DESB,2,,,,All Job Seekers,ROSEBUD,SPCSIC Sthn Peninsula Comm Ctr 878 Point Nepean Rd,1300 080 856,-38.35430700,144.90833100,,
"We’re atWork Australia, an employment services provider helping Australians with disability, illness or injury find meaningful and lasting employment. We work hard to find the right person the right job, and have been doing so for over 15 years. 
Let’s get started, call us today on 1300 080 856.",Atwork Australia Pty Ltd,VIC,3199,AQ16,DESB,2,,,,All Job Seekers,FRANKSTON,Suite 3 Level 1 108-120 Young St,1300 080 856,-38.14442049,145.12407946,,
"We’re atWork Australia, an employment services provider helping Australians with disability, illness or injury find meaningful and lasting employment. We work hard to find the right person the right job, and have been doing so for over 15 years. 
Let’s get started, call us today on 1300 080 856.",Atwork Australia Pty Ltd,VIC,3198,AQ26,DESB,1,,,,All Job Seekers,SEAFORD,Belvedere Community Centre Inc 36 Belvedere Rd,1300 080 856,-38.10989739,145.14762913,,
"We’re atWork Australia, an employment services provider helping Australians with disability, illness or injury find meaningful and lasting employment. We work hard to find the right person the right job, and have been doing so for over 15 years. 
Let’s get started, call us today on 1300 080 856.",Atwork Australia Pty Ltd,VIC,3805,AQ36,DESB,2,,,,All Job Seekers,NARRE WARREN,Windermere 48 Webb St,1300 080 856,-38.02430000,145.30620400,,
"We’re atWork Australia, an employment services provider helping Australians with disability, illness or injury find meaningful and lasting employment. We work hard to find the right person the right job, and have been doing so for over 15 years. 
Let’s get started, call us today on 1300 080 856.",Atwork Australia Pty Ltd,VIC,3977,AQ46,DESB,2,,,,All Job Seekers,CRANBOURNE,134A High Street,1300 080 856,-38.11283540,145.27524848,,
"We’re atWork Australia, an employment services provider helping Australians with disability, illness or injury find meaningful and lasting employment. We work hard to find the right person the right job, and have been doing so for over 15 years. 
Let’s get started, call us today on 1300 080 856.",Atwork Australia Pty Ltd,VIC,3810,AQ56,DESB,2,,,,All Job Seekers,PAKENHAM,"Living Learning Pakenham, 6B Henry St",1300 080 856,-38.07424857,145.48174506,,
"We’re atWork Australia, an employment services provider helping Australians with disability, illness or injury find meaningful and lasting employment. We work hard to find the right person the right job, and have been doing so for over 15 years. 
Let’s get started, call us today on 1300 080 856.",Atwork Australia Pty Ltd,VIC,3064,AQ76,DESB,5,,,,All Job Seekers,CRAIGIEBURN,"Craigieburn Junction, Bldg D, U 204 420-440 Craigieburn Rd",1300 080 856,-37.59223816,144.90892290,,
"We’re atWork Australia, an employment services provider helping Australians with disability, illness or injury find meaningful and lasting employment. We work hard to find the right person the right job, and have been doing so for over 15 years. 
Let’s get started, call us today on 1300 080 856.",Atwork Australia Pty Ltd,VIC,3058,AQ86,DESB,3,,,,All Job Seekers,COBURG,Selvi Psychological Services 124 Sydney Rd,1300 080 856,-37.75195900,144.96496600,,
"We’re atWork Australia, an employment services provider helping Australians with disability, illness or injury find meaningful and lasting employment. We work hard to find the right person the right job, and have been doing so for over 15 years. 
Let’s get started, call us today on 1300 080 856.",Atwork Australia Pty Ltd,VIC,3032,AQ96,DESB,3,,,,All Job Seekers,ASCOT VALE,"119A Maribyrnong Road,",1300 080 856,-37.77192977,144.91511953,,
"We’re atWork Australia, an employment services provider helping Australians with disability, illness or injury find meaningful and lasting employment. We work hard to find the right person the right job, and have been doing so for over 15 years. 
Let’s get started, call us today on 1300 080 856.",Atwork Australia Pty Ltd,VIC,3429,AR06,DESB,3,,,,All Job Seekers,SUNBURY,Sunbury Neighbourhood House 531 Elizabeth Drive,1300 080 856,-37.57765321,144.71097203,,
"We’re atWork Australia, an employment services provider helping Australians with disability, illness or injury find meaningful and lasting employment. We work hard to find the right person the right job, and have been doing so for over 15 years. 
Let’s get started, call us today on 1300 080 856.",Atwork Australia Pty Ltd,VIC,3047,AR16,DESB,3,,,,All Job Seekers,BROADMEADOWS,Hume City Hub Level 2 61 Riggall St Cnr Blair St,1300 080 856,-37.67752326,144.93095962,,
"We’re atWork Australia, an employment services provider helping Australians with disability, illness or injury find meaningful and lasting employment. We work hard to find the right person the right job, and have been doing so for over 15 years. 
Let’s get started, call us today on 1300 080 856.",Atwork Australia Pty Ltd,VIC,3181,AR26,DESB,2,,,,All Job Seekers,PRAHRAN,"Prahran Community Learning Centre, 40 Grattan St",1300 080 856,-37.84806498,144.99140536,,
"We’re atWork Australia, an employment services provider helping Australians with disability, illness or injury find meaningful and lasting employment. We work hard to find the right person the right job, and have been doing so for over 15 years. 
Let’s get started, call us today on 1300 080 856.",Atwork Australia Pty Ltd,VIC,3189,AR36,DESB,1,,,,All Job Seekers,MOORABBIN,Bayside Business Centre 441 South Road,1300 080 856,-37.93305221,145.03665733,,
"We’re atWork Australia, an employment services provider helping Australians with disability, illness or injury find meaningful and lasting employment. We work hard to find the right person the right job, and have been doing so for over 15 years. 
Let’s get started, call us today on 1300 080 856.",Atwork Australia Pty Ltd,VIC,3175,AR46,DESB,3,,,,All Job Seekers,DANDENONG,1/85 Foster Street,1300 080 856,-37.98972000,145.21200700,,
"We’re atWork Australia, an employment services provider helping Australians with disability, illness or injury find meaningful and lasting employment. We work hard to find the right person the right job, and have been doing so for over 15 years. 
Let’s get started, call us today on 1300 080 856.",Atwork Australia Pty Ltd,VIC,3130,AR56,DESB,1,,,,All Job Seekers,BLACKBURN,3 Springfield Rd New Hope Community Care,1300 080 856,-37.82169484,145.15225647,,
"We’re atWork Australia, an employment services provider helping Australians with disability, illness or injury find meaningful and lasting employment. We work hard to find the right person the right job, and have been doing so for over 15 years. 
Let’s get started, call us today on 1300 080 856.",Atwork Australia Pty Ltd,NSW,2324,AR66,DESB,3,,,,All Job Seekers,RAYMOND TERRACE,PCYC - Raymond Terrace 19/17 Sturgeon St,1300 080 856,-32.76370249,151.74344361,,
"We’re atWork Australia, an employment services provider helping Australians with disability, illness or injury find meaningful and lasting employment. We work hard to find the right person the right job, and have been doing so for over 15 years. 
Let’s get started, call us today on 1300 080 856.",Atwork Australia Pty Ltd,NSW,2315,AR76,DESB,3,,,,All Job Seekers,NELSON BAY,PCYC Port Stephens Nelson Bay 7 Austral St,1300 080 856,-32.72107708,152.15339301,,
"We’re atWork Australia, an employment services provider helping Australians with disability, illness or injury find meaningful and lasting employment. We work hard to find the right person the right job, and have been doing so for over 15 years. 
Let’s get started, call us today on 1300 080 856.",Atwork Australia Pty Ltd,NSW,2283,AR86,DESB,4,,,,All Job Seekers,TORONTO,Toronto Multi-Purpose Centre 9 Thorne Street,1300 080 856,-33.01165427,151.59193835,,
"We’re atWork Australia, an employment services provider helping Australians with disability, illness or injury find meaningful and lasting employment. We work hard to find the right person the right job, and have been doing so for over 15 years. 
Let’s get started, call us today on 1300 080 856.",Atwork Australia Pty Ltd,NSW,2289,AR96,DESB,2,,,,All Job Seekers,KOTARA,"Level 1, The OTP Building 10 Bradford Close",1300 080 856,-32.93740408,151.71035874,,
"We’re atWork Australia, an employment services provider helping Australians with disability, illness or injury find meaningful and lasting employment. We work hard to find the right person the right job, and have been doing so for over 15 years. 
Let’s get started, call us today on 1300 080 856.",Atwork Australia Pty Ltd,NSW,2380,AS06,DESB,3,,,,All Job Seekers,GUNNEDAH,39 Chandos Street,1300 080 856,-30.97745005,150.25105666,,
"We’re atWork Australia, an employment services provider helping Australians with disability, illness or injury find meaningful and lasting employment. We work hard to find the right person the right job, and have been doing so for over 15 years. 
Let’s get started, call us today on 1300 080 856.",Atwork Australia Pty Ltd,NSW,2340,AS16,DESB,3,,,,All Job Seekers,TAMWORTH,Suite 2 / 1a Bligh St,1300 080 856,-31.08139901,150.92313882,,
"We’re atWork Australia, an employment services provider helping Australians with disability, illness or injury find meaningful and lasting employment. We work hard to find the right person the right job, and have been doing so for over 15 years. 
Let’s get started, call us today on 1300 080 856.",Atwork Australia Pty Ltd,NSW,2261,AS26,DESB,3,,,,All Job Seekers,THE ENTRANCE,Level 2 68 - 72 The Entrance Rd,1300 080 856,-33.34456474,151.49685521,,
"We’re atWork Australia, an employment services provider helping Australians with disability, illness or injury find meaningful and lasting employment. We work hard to find the right person the right job, and have been doing so for over 15 years. 
Let’s get started, call us today on 1300 080 856.",Atwork Australia Pty Ltd,NSW,2259,AS36,DESB,3,,,,All Job Seekers,WYONG,Wyong Neighbourhood Centre Alison Rd and Rankens Ct,1300 080 856,-33.28377308,151.42363870,,
"We’re atWork Australia, an employment services provider helping Australians with disability, illness or injury find meaningful and lasting employment. We work hard to find the right person the right job, and have been doing so for over 15 years. 
Let’s get started, call us today on 1300 080 856.",Atwork Australia Pty Ltd,NSW,2259,AS46,DESB,3,,,,All Job Seekers,TUGGERAH,Shop 4 3 Bounty Close,1300 080 856,-33.32141347,151.42554797,,
"We’re atWork Australia, an employment services provider helping Australians with disability, illness or injury find meaningful and lasting employment. We work hard to find the right person the right job, and have been doing so for over 15 years. 
Let’s get started, call us today on 1300 080 856.",Atwork Australia Pty Ltd,NSW,2250,AS56,DESB,3,,,,All Job Seekers,GOSFORD,"Level 1, Suite 12, Gateway Centre 237 Mann St",1300 080 856,-33.42332814,151.34295213,,
"We’re atWork Australia, an employment services provider helping Australians with disability, illness or injury find meaningful and lasting employment. We work hard to find the right person the right job, and have been doing so for over 15 years. 
Let’s get started, call us today on 1300 080 856.",Atwork Australia Pty Ltd,WA,6258,AS66,DESB,3,,,,All Job Seekers,MANJIMUP,Community Resource Centre 45 Rose Street,1300 080 856,-34.24012712,116.14520875,,
"We’re atWork Australia, an employment services provider helping Australians with disability, illness or injury find meaningful and lasting employment. We work hard to find the right person the right job, and have been doing so for over 15 years. 
Let’s get started, call us today on 1300 080 856.",Atwork Australia Pty Ltd,WA,6317,AS76,DESB,3,,,,All Job Seekers,KATANNING,"Katanning Hub CRC, 42 Austral Terrace",1300 080 856,-33.69170849,117.55549269,,
"We’re atWork Australia, an employment services provider helping Australians with disability, illness or injury find meaningful and lasting employment. We work hard to find the right person the right job, and have been doing so for over 15 years. 
Let’s get started, call us today on 1300 080 856.",Atwork Australia Pty Ltd,WA,6225,AS86,DESB,3,,,,All Job Seekers,COLLIE,"Collie Family Centre, 5 Forrest St",1300 080 856,-33.36010345,116.15678307,,
"We’re atWork Australia, an employment services provider helping Australians with disability, illness or injury find meaningful and lasting employment. We work hard to find the right person the right job, and have been doing so for over 15 years. 
Let’s get started, call us today on 1300 080 856.",Atwork Australia Pty Ltd,WA,6280,AS96,DESB,3,,,,All Job Seekers,BUSSELTON,"Unit 5/42 Albert Street,",1300 080 856,-33.65216000,115.34629000,,
"We’re atWork Australia, an employment services provider helping Australians with disability, illness or injury find meaningful and lasting employment. We work hard to find the right person the right job, and have been doing so for over 15 years. 
Let’s get started, call us today on 1300 080 856.",Atwork Australia Pty Ltd,WA,6230,AT06,DESB,2,,,,All Job Seekers,BUNBURY,Unit 1 21 Victoria Street,1300 080 856,-33.32022597,115.63657050,,
"We’re atWork Australia, an employment services provider helping Australians with disability, illness or injury find meaningful and lasting employment. We work hard to find the right person the right job, and have been doing so for over 15 years. 
Let’s get started, call us today on 1300 080 856.",Atwork Australia Pty Ltd,WA,6330,AT16,DESB,3,,,,All Job Seekers,ALBANY,4/14 Peels Place,1300 080 856,-35.02562464,117.88478480,,
"We’re atWork Australia, an employment services provider helping Australians with disability, illness or injury find meaningful and lasting employment. We work hard to find the right person the right job, and have been doing so for over 15 years. 
Let’s get started, call us today on 1300 080 856.",Atwork Australia Pty Ltd,SA,5009,AT26,DESB,4,,,,All Job Seekers,KILKENNY,"Shop 4, 433 Torrens Rd,",1300 080 856,-34.87915419,138.55290065,,
"We’re atWork Australia, an employment services provider helping Australians with disability, illness or injury find meaningful and lasting employment. We work hard to find the right person the right job, and have been doing so for over 15 years. 
Let’s get started, call us today on 1300 080 856.",Atwork Australia Pty Ltd,SA,5007,AT36,DESB,3,,,,All Job Seekers,HINDMARSH,146 Port Road,1300 080 856,-34.90636261,138.57256820,,
"We’re atWork Australia, an employment services provider helping Australians with disability, illness or injury find meaningful and lasting employment. We work hard to find the right person the right job, and have been doing so for over 15 years. 
Let’s get started, call us today on 1300 080 856.",Atwork Australia Pty Ltd,SA,5015,AT46,DESB,3,,,,All Job Seekers,PORT ADELAIDE,Port Adelaide Library 2 - 4 Church Street,1300 080 856,-34.84747849,138.50348490,,
"We’re atWork Australia, an employment services provider helping Australians with disability, illness or injury find meaningful and lasting employment. We work hard to find the right person the right job, and have been doing so for over 15 years. 
Let’s get started, call us today on 1300 080 856.",Atwork Australia Pty Ltd,SA,5046,AT56,DESB,4,,,,All Job Seekers,OAKLANDS PARK,Marion Cultural Centre 287 Diagonal Road,1300 080 856,-35.01364010,138.54338745,,
"We’re atWork Australia, an employment services provider helping Australians with disability, illness or injury find meaningful and lasting employment. We work hard to find the right person the right job, and have been doing so for over 15 years. 
Let’s get started, call us today on 1300 080 856.",Atwork Australia Pty Ltd,SA,5168,AT66,DESB,5,,,,All Job Seekers,NOARLUNGA CENTRE,Colonnades Shopping Centre Shop 130 54 Beach Rd,1300 080 856,-35.14261654,138.49577201,,
"We’re atWork Australia, an employment services provider helping Australians with disability, illness or injury find meaningful and lasting employment. We work hard to find the right person the right job, and have been doing so for over 15 years. 
Let’s get started, call us today on 1300 080 856.",Atwork Australia Pty Ltd,SA,5169,AT76,DESB,3,,,,All Job Seekers,SEAFORD,Seaford Community Centre Beechwood Grove,1300 080 856,-35.19074135,138.47460326,,
"We’re atWork Australia, an employment services provider helping Australians with disability, illness or injury find meaningful and lasting employment. We work hard to find the right person the right job, and have been doing so for over 15 years. 
Let’s get started, call us today on 1300 080 856.",atWork Australia Pty Ltd,SA,5092,AT96,DESB,New,,,,All Job Seekers,MODBURY,"Suite 4, Unit 5, 102 Reservoir Road",1300 080 856,-34.83385449,138.68760435,,
"We’re atWork Australia, an employment services provider helping Australians with disability, illness or injury find meaningful and lasting employment. We work hard to find the right person the right job, and have been doing so for over 15 years. 
Let’s get started, call us today on 1300 080 856.",Atwork Australia Pty Ltd,SA,5070,AU06,DESB,1,,,,All Job Seekers,PAYNEHAM,"2 Portrush Road,",1300 080 856,-34.89889575,138.64223491,,
"We’re atWork Australia, an employment services provider helping Australians with disability, illness or injury find meaningful and lasting employment. We work hard to find the right person the right job, and have been doing so for over 15 years. 
Let’s get started, call us today on 1300 080 856.",Atwork Australia Pty Ltd,SA,5000,AU16,DESB,5,,,,All Job Seekers,ADELAIDE,Level 8 182 Victoria Square,1300 080 856,-34.92736224,138.60102000,,
"We’re atWork Australia, an employment services provider helping Australians with disability, illness or injury find meaningful and lasting employment. We work hard to find the right person the right job, and have been doing so for over 15 years. 
Let’s get started, call us today on 1300 080 856.",atwork Australia Pty Ltd,NSW,2527,AU36,DESB,3,,,,All Job Seekers,ALBION PARK,Albion Park Community Hall Russell Street,1300 080 856,-34.58220094,150.77728987,,
"We’re atWork Australia, an employment services provider helping Australians with disability, illness or injury find meaningful and lasting employment. We work hard to find the right person the right job, and have been doing so for over 15 years. 
Let’s get started, call us today on 1300 080 856.",Atwork Australia Pty Ltd,NSW,2518,AU46,DESB,New,,,,All Job Seekers,CORRIMAL,Corrimal Library 15 Short Street,1300 080 856,-34.37716567,150.89890112,,
"We’re atWork Australia, an employment services provider helping Australians with disability, illness or injury find meaningful and lasting employment. We work hard to find the right person the right job, and have been doing so for over 15 years. 
Let’s get started, call us today on 1300 080 856.",Atwork Australia Pty Ltd,NSW,2567,AU56,DESB,5,,,,All Job Seekers,NARELLAN,Narellan Library Cnr Queen & Elyard Road,1300 080 856,-34.04408439,150.73246063,,
"We’re atWork Australia, an employment services provider helping Australians with disability, illness or injury find meaningful and lasting employment. We work hard to find the right person the right job, and have been doing so for over 15 years. 
Let’s get started, call us today on 1300 080 856.",Atwork Australia Pty Ltd,NSW,2565,AU66,DESB,3,,,,All Job Seekers,INGLEBURN,Greg Percival Library Cumberland & Oxford Road,1300 080 856,-34.00455265,150.86327558,,
"We’re atWork Australia, an employment services provider helping Australians with disability, illness or injury find meaningful and lasting employment. We work hard to find the right person the right job, and have been doing so for over 15 years. 
Let’s get started, call us today on 1300 080 856.",Atwork Australia Pty Ltd,NSW,2560,AU76,DESB,5,,,,All Job Seekers,CAMPBELLTOWN,108 Queen St,1300 080 856,-34.06438091,150.81672566,,
"We’re atWork Australia, an employment services provider helping Australians with disability, illness or injury find meaningful and lasting employment. We work hard to find the right person the right job, and have been doing so for over 15 years. 
Let’s get started, call us today on 1300 080 856.",Atwork Australia Pty Ltd,NSW,2210,AU86,DESB,3,,,,All Job Seekers,RIVERWOOD,"shop1, 1-5  Hannans Road",1300 080 856,-33.94596751,151.05561139,,
"We’re atWork Australia, an employment services provider helping Australians with disability, illness or injury find meaningful and lasting employment. We work hard to find the right person the right job, and have been doing so for over 15 years. 
Let’s get started, call us today on 1300 080 856.",Atwork Australia Pty Ltd,NSW,2220,AU96,DESB,4,,,,All Job Seekers,HURSTVILLE,Level 1 34 MacMahon St,1300 080 856,-33.96550362,151.10132067,,
"We’re atWork Australia, an employment services provider helping Australians with disability, illness or injury find meaningful and lasting employment. We work hard to find the right person the right job, and have been doing so for over 15 years. 
Let’s get started, call us today on 1300 080 856.",Atwork Australia Pty Ltd,NSW,2216,AV06,DESB,3,,,,All Job Seekers,ROCKDALE,"Level 2, 8-12 King Street,",1300 080 856,-33.95228282,151.13889489,,
"We’re atWork Australia, an employment services provider helping Australians with disability, illness or injury find meaningful and lasting employment. We work hard to find the right person the right job, and have been doing so for over 15 years. 
Let’s get started, call us today on 1300 080 856.",Atwork Australia Pty Ltd,NSW,2770,AV16,DESB,2,,,,All Job Seekers,MOUNT DRUITT,Mount Druitt Hub Level 1 9 Ayres Grove,1300 080 856,-33.76719157,150.82219576,,
"We’re atWork Australia, an employment services provider helping Australians with disability, illness or injury find meaningful and lasting employment. We work hard to find the right person the right job, and have been doing so for over 15 years. 
Let’s get started, call us today on 1300 080 856.",Atwork Australia Pty Ltd,NSW,2148,AV26,DESB,4,,,,All Job Seekers,BLACKTOWN,Level 2 45-51 Main St,1300 080 856,-33.76935140,150.90881795,,
"We’re atWork Australia, an employment services provider helping Australians with disability, illness or injury find meaningful and lasting employment. We work hard to find the right person the right job, and have been doing so for over 15 years. 
Let’s get started, call us today on 1300 080 856.",Atwork Australia Pty Ltd,NSW,2763,AV36,DESB,4,,,,All Job Seekers,QUAKERS HILL,"42 Pearce Rd, Cnr Ramona St Ramona St Medical Centre",1300 080 856,-33.72777376,150.88714498,,
"We’re atWork Australia, an employment services provider helping Australians with disability, illness or injury find meaningful and lasting employment. We work hard to find the right person the right job, and have been doing so for over 15 years. 
Let’s get started, call us today on 1300 080 856.",Atwork Australia Pty Ltd,NSW,2067,AV46,DESB,3,,,,All Job Seekers,CHATSWOOD,Level 6 10 Help Street,1300 080 856,-33.79626297,151.18111758,,
"We’re atWork Australia, an employment services provider helping Australians with disability, illness or injury find meaningful and lasting employment. We work hard to find the right person the right job, and have been doing so for over 15 years. 
Let’s get started, call us today on 1300 080 856.",Atwork Australia Pty Ltd,NSW,2100,AV56,DESB,1,,,,All Job Seekers,BROOKVALE,Warringah Mall Library 650/145 Old Pittwater Rd,1300 080 856,-33.76772041,151.26571474,,
"We’re atWork Australia, an employment services provider helping Australians with disability, illness or injury find meaningful and lasting employment. We work hard to find the right person the right job, and have been doing so for over 15 years. 
Let’s get started, call us today on 1300 080 856.",Atwork Australia Pty Ltd,NSW,2756,AV66,DESB,2,,,,All Job Seekers,WINDSOR,Hawkesbury Central Library 300 George St,1300 080 856,-33.60972830,150.81748577,,
"We’re atWork Australia, an employment services provider helping Australians with disability, illness or injury find meaningful and lasting employment. We work hard to find the right person the right job, and have been doing so for over 15 years. 
Let’s get started, call us today on 1300 080 856.",Atwork Australia Pty Ltd,NSW,2750,AV76,DESB,2,,,,All Job Seekers,PENRITH,"Lvl 2, Suite 2002 Borec House 29 - 57 Station St",1300 080 856,-33.74540825,150.69362348,,
"We’re atWork Australia, an employment services provider helping Australians with disability, illness or injury find meaningful and lasting employment. We work hard to find the right person the right job, and have been doing so for over 15 years. 
Let’s get started, call us today on 1300 080 856.",Atwork Australia Pty Ltd,NSW,2043,AV96,DESB,2,,,,All Job Seekers,ERSKINEVILLE,Erskineville Town Hall 104 Erskineville Road,1300 080 856,-33.89938210,151.18383620,,
,NOVA Employment,NSW,2148,AW00,DESB,5,,,,All Job Seekers,BLACKTOWN,Units 4 & 5 18 Third Avenue,(02) 9831 7199,-33.76614236,150.91070313,,
"We’re atWork Australia, an employment services provider helping Australians with disability, illness or injury find meaningful and lasting employment. We work hard to find the right person the right job, and have been doing so for over 15 years. 
Let’s get started, call us today on 1300 080 856.",Atwork Australia Pty Ltd,NSW,2000,AW06,DESB,2,,,,All Job Seekers,SYDNEY,Level 34 31 Market St,1300 080 856,-33.87154945,151.20593899,,
"We’re atWork Australia, an employment services provider helping Australians with disability, illness or injury find meaningful and lasting employment. We work hard to find the right person the right job, and have been doing so for over 15 years. 
Let’s get started, call us today on 1300 080 856.",Atwork Australia Pty Ltd,NSW,2165,AW26,DESB,3,,,,All Job Seekers,FAIRFIELD,8/13 Nelson St,1300 080 856,-33.86946647,150.95375389,,
"We’re atWork Australia, an employment services provider helping Australians with disability, illness or injury find meaningful and lasting employment. We work hard to find the right person the right job, and have been doing so for over 15 years. 
Let’s get started, call us today on 1300 080 856.",Atwork Australia Pty Ltd,NSW,2166,AW36,DESB,3,,,,All Job Seekers,CABRAMATTA,Whitlam Library 165 Railway Parade,1300 080 856,-33.89255575,150.93874407,,
"We’re atWork Australia, an employment services provider helping Australians with disability, illness or injury find meaningful and lasting employment. We work hard to find the right person the right job, and have been doing so for over 15 years. 
Let’s get started, call us today on 1300 080 856.",Atwork Australia Pty Ltd,NSW,2177,AW46,DESB,4,,,,All Job Seekers,BONNYRIGG,Bonnyrigg Library 100 Bonnyrigg Ave,1300 080 856,-33.88622843,150.88863939,,
"We’re atWork Australia, an employment services provider helping Australians with disability, illness or injury find meaningful and lasting employment. We work hard to find the right person the right job, and have been doing so for over 15 years. 
Let’s get started, call us today on 1300 080 856.",Atwork Australia Pty Ltd,NSW,2141,AW56,DESB,3,,,,All Job Seekers,LIDCOMBE,BLDG E Gateway B/P Level 1 103/77-79 Parramatta Rd,1300 080 856,-33.84506392,151.04365143,,
,MBC Employment Services,NSW,2500,BBAZ,DESB,3,,,,All Job Seekers,WOLLONGONG,Ground Floor 156 Keira Street,(02) 4228 1255,-34.42275860,150.89320999,,
"TURSA is a very successful not-for profit Provider of employment services  through individualised services and support.TURSA  services are provided by real people in convenient locations  - not servicing that is remote, or electronic, or by call centre.  Real people, real services. Open Full Time 8.30am to 5.00pm Mon to Fri.   www.tursa.com.au",TURSA,NSW,2481,BBCZ,DESB,3,,,,All Job Seekers,BYRON BAY,44 Fletcher Street,(02) 6685 8211,-28.64402168,153.61310528,,
,Mission Australia,NSW,2200,BD80,DESB,4,,,,All Job Seekers,BANKSTOWN,Bankstown Civic Centre Level 7 66-72 Rickard Road,1300 883 067,-33.91513031,151.03629683,,
"MAX Employment assists thousands of customers into work every year, delivering services from 250 offices across every Australian state and territory. Through our business and community network we link customers to jobs across multiple industries. We deliver Disability Employment Services on behalf of the Australian Govt. This site operates Mon-Fri 8:30am-5pm",MAX Employment,NSW,2150,BE10,DESB,5,,,,All Job Seekers,PARRAMATTA,Level 5 20 Wentworth Street,(02) 9407 7300,-33.81396457,151.00687829,,
"TURSA is a very successful not-for profit Provider of employment services  through individualised services and support. TURSA  services are provided by real people in convenient locations  - not servicing that is remote, or electronic, or by call centre.  Real people, real services. Open Full Time 8.30am to 5.00pm Mon to Fri.   www.tursa.com.au",TURSA,NSW,2456,BE20,DESB,5,,,,All Job Seekers,WOOLGOOLGA,10 Queen Street,(02) 6654 1550,-30.11110505,153.20229096,,
"TURSA is a very successful not-for profit Provider of employment services  through individualised services and support. TURSA  services are provided by real people in convenient locations  - not servicing that is remote, or electronic, or by call centre.  Real people, real services. Open Full Time 8.30am to 5.00pm Mon to Fri.   www.tursa.com.au",TURSA,NSW,2454,BE30,DESB,1,,,,All Job Seekers,BELLINGEN,20 Hyde Street,(02) 6655 0150,-30.45293820,152.89989492,,
"MAX Employment assists thousands of customers into work every year, delivering services from 250 offices across every Australian state and territory. Through our business and community network we link customers to jobs across multiple industries.We deliver Disability Employment Services on behalf of the Australian Govt.
This site operates Mon-Fri 8:30am-5pm",MAX Employment,NSW,2165,BF00,DESB,3,,,,All Job Seekers,FAIRFIELD,"Level 1,  7 William Street",(02) 8774 7100,-33.87296108,150.95401299,,
"MAX Employment assists thousands of customers into work every year, delivering services from 250 offices across every Australian state and territory. Through our business and community network we link customers to jobs across multiple industries. We deliver Disability Employment Services on behalf of the Australian Govt. This site operates Mon-Fri 8:30am-5pm",MAX Employment,NSW,2001,BH00,DESB,4,,,,All Job Seekers,SYDNEY,Level 3 241 Castlereagh Street,(02) 9361 7200,-33.87617040,151.20854289,,
"At Status we’re all about empowering you and we’ve been successfully assisting people into jobs for over 30 years!  Our knowledgeable staff will work with you every step of the way to ensure that we find you the right job by getting to know you and your individual circumstances.  At Status, we’re here for you, so call or come in and see us today!",Status Employment Services,WA,6030,BH08,DESB,New,,,,All Job Seekers,CLARKSON,Suite 17 61 Ocean Keys Bvd,,-31.68950068,115.71979291,,
"At Status we’re all about empowering you and we’ve been successfully assisting people into jobs for over 30 years!  Our knowledgeable staff will work with you every step of the way to ensure that we find you the right job by getting to know you and your individual circumstances.  At Status, we’re here for you, so call or come in and see us today!",Status Employment Services,WA,6027,BH18,DESB,New,,,,All Job Seekers,JOONDALUP,"Level1,  5 Davidson Terrace",,-31.73767639,115.77029534,,
"At Status we’re all about empowering you and we’ve been successfully assisting people into jobs for over 30 years!  Our knowledgeable staff will work with you every step of the way to ensure that we find you the right job by getting to know you and your individual circumstances.  At Status, we’re here for you, so call or come in and see us today!",Status Employment Services,WA,6062,BH28,DESB,New,,,,All Job Seekers,MORLEY,Unit 4 8 Dewar St,,-31.90036000,115.90114000,,
"At Status we’re all about empowering you and we’ve been successfully assisting people into jobs for over 30 years!  Our knowledgeable staff will work with you every step of the way to ensure that we find you the right job by getting to know you and your individual circumstances.  At Status, we’re here for you, so call or come in and see us today!",Status Employment Services,WA,6017,BH38,DESB,New,,,,All Job Seekers,OSBORNE PARK,1 King Edward Rd,,-31.90363000,115.80381000,,
"We’re atWork Australia, an employment services provider helping Australians with disability, illness or injury find meaningful and lasting employment. We work hard to find the right person the right job, and have been doing so for over 15 years. 
Let’s get started, call us today on 1300 080 856.",atWork Australia Pty Ltd,TAS,7050,BH48,DESB,New,,,,All Job Seekers,KINGSTON,24 Hawthorn Dr,1300 080 856,-42.99265234,147.30502989,,
"We’re atWork Australia, an employment services provider helping Australians with disability, illness or injury find meaningful and lasting employment. We work hard to find the right person the right job, and have been doing so for over 15 years. 
Let’s get started, call us today on 1300 080 856.",atWork Australia Pty Ltd,TAS,7250,BH58,DESB,New,,,,All Job Seekers,RIVERSIDE,Riverside Physiotherapy 5 Cleghorn Avenue,1300 080 856,-41.41111418,147.10084510,,
"MAX Employment assists thousands of customers into work every year, operating from 250 offices across every Australian state & territory.
We deliver jobactive employment services on behalf of the Australian Govt.
We work in conjunction with national partner yourtown to also provide specialist youth employment services. This site operates Mon-Fri 8:30am-5pm",MAX Employment,TAS,7250,BH60,DESB,4,,,,All Job Seekers,LAUNCESTON,Ground Floor 46-54 Charles Street,(03) 6335 1000,-41.43696283,147.13560200,,
"We’re atWork Australia, an employment services provider helping Australians with disability, illness or injury find meaningful and lasting employment. We work hard to find the right person the right job, and have been doing so for over 15 years. 
Let’s get started, call us today on 1300 080 856.",atWork Australia Pty Ltd,TAS,7270,BH68,DESB,New,,,,All Job Seekers,BEACONSFIELD,Beaconsfield Neighbourhood House 33 Grubb Street,1300 080 856,-41.20314279,146.82194682,,
"We’re atWork Australia, an employment services provider helping Australians with disability, illness or injury find meaningful and lasting employment. We work hard to find the right person the right job, and have been doing so for over 15 years. 
Let’s get started, call us today on 1300 080 856.",atWork Australia Pty Ltd,NSW,2264,BH78,DESB,New,,,,All Job Seekers,MORISSET,Morisset PCYC 5 Kahibah Street,1300 080 856,-33.11765715,151.49111069,,
"MAX Employment assists thousands of customers into work every year, delivering services from 250 offices across every Australian state and territory. Through our business and community network we link customers to jobs across multiple industries.We deliver Disability Employment Services on behalf of the Australian Govt.
This site operates Mon-Fri 8:30am-5pm",MAX Employment,NSW,2565,BH80,DESB,2,,,,All Job Seekers,INGLEBURN,Suite 2 34 Carlisle Street,(02) 9616 9200,-33.99806159,150.86674495,,
"We’re atWork Australia, an employment services provider helping Australians with disability, illness or injury find meaningful and lasting employment. We work hard to find the right person the right job, and have been doing so for over 15 years. 
Let’s get started, call us today on 1300 080 856.",atWork Australia Pty Ltd,VIC,3153,BH88,DESB,New,,,,All Job Seekers,BAYSWATER,High Street Medical Centre Unit 2 2-4 High St,1300 080 856,-37.84183467,145.26512639,,
"MAX Employment assists thousands of customers into work every year, delivering services from 250 offices across every Australian state and territory. Through our business and community network we link customers to jobs across multiple industries.We deliver Disability Employment Services on behalf of the Australian Govt.
This site operates Mon-Fri 8:30am-5pm",MAX Employment,NSW,2560,BH90,DESB,3,,,,All Job Seekers,CAMPBELLTOWN,Level 1 135 Queen Street,(02) 4606 2800,-34.06592268,150.81456444,,
"We’re atWork Australia, an employment services provider helping Australians with disability, illness or injury find meaningful and lasting employment. We work hard to find the right person the right job, and have been doing so for over 15 years. 
Let’s get started, call us today on 1300 080 856.",atWork Australia Pty Ltd,VIC,3012,BH98,DESB,New,,,,All Job Seekers,MAIDSTONE,Maidstone Community Centre 21 Yardley St,1300 080 856,-37.78946005,144.86837885,,
"VERTO is an award winning, not-for-profit organisation assisting businesses and individuals with all their employment and training needs. Our expertise covers a range of areas including Aboriginal services, Australian Apprenticeships services, disability services, employment services and vocational training to help businesses, individuals and local industry.",VERTO,NSW,2594,BHRZ,DESB,2,,,,All Job Seekers,YOUNG,55 Boorowa Street,1300 483 786,-34.31331907,148.29924984,,
,VERTO,NSW,2671,BHSZ,DESB,Rating unavailable,,,,All Job Seekers,WEST WYALONG,89-91 Main Street,1300 483 786,-33.92291946,147.20705766,,
,VERTO,NSW,2877,BHWZ,DESB,Rating unavailable,,,,All Job Seekers,CONDOBOLIN,Wiradjuri Corporation Cnr McDonnell & Cunningham St,0408 050 153,-32.89959822,147.00743056,,
,OCTEC Limited,NSW,2749,BI18,DESB,New,,,,All Job Seekers,CRANEBROOK,Andromeda Community Centre 79/81 Andromeda Dr,,-33.71096071,150.71744410,,
,OCTEC Limited,NSW,2745,BI28,DESB,New,,,,All Job Seekers,GLENMORE PARK,Glenmore Park Town Centre 1 Town Terrace,,-33.78736467,150.66860474,,
"MAX Employment assists thousands of customers into work every year, delivering services from 250 offices across every Australian state and territory. Through our business and community network we link customers to jobs across multiple industries. We deliver Disability Employment Services on behalf of the Australian Govt. This site operates Mon-Fri 8:30am-5pm",MAX Employment,NSW,2770,BI40,DESB,4,,,,All Job Seekers,MOUNT DRUITT,Level 1 5 Mount Street,(02) 8882 6700,-33.76835963,150.82331930,,
,MAX Employment,NSW,2750,BI50,DESB,2,,,,All Job Seekers,PENRITH,"Borec House Level 3, 29-57 Station Street",(02) 4747 7900,-33.74540825,150.69362348,,
,MAX Employment,NSW,2777,BI60,DESB,3,,,,All Job Seekers,SPRINGWOOD,111 Macquarie Road,(02) 4752 2200,-33.69886707,150.56812760,,
,APM Employment Services,NSW,2447,BJ28,DESB,New,,,,All Job Seekers,MACKSVILLE,Shop 3 10-12 Princess Street,1300 366 047,-30.70691074,152.91898589,,
"We’re atWork Australia, an employment services provider helping Australians with disability, illness or injury find meaningful and lasting employment. We work hard to find the right person the right job, and have been doing so for over 15 years. 
Let’s get started, call us today on 1300 080 856.",atWork Australia Pty Ltd,NSW,2285,BJ38,DESB,New,,,,All Job Seekers,EDGEWORTH,1 Minmi Rd,1300 080 856,-32.92346032,151.62172967,,
"We’re atWork Australia, an employment services provider helping Australians with disability, illness or injury find meaningful and lasting employment. We work hard to find the right person the right job, and have been doing so for over 15 years. 
Let’s get started, call us today on 1300 080 856.",atWork Australia Pty Ltd,NSW,2346,BJ48,DESB,New,,,,All Job Seekers,MANILLA,191-193 Manilla Street,1300 080 856,-30.74665302,150.72028066,,
"We’re atWork Australia, an employment services provider helping Australians with disability, illness or injury find meaningful and lasting employment. We work hard to find the right person the right job, and have been doing so for over 15 years. 
Let’s get started, call us today on 1300 080 856.",atWork Australia Pty Ltd,NSW,2343,BJ58,DESB,New,,,,All Job Seekers,QUIRINDI,193 George St,1300 080 856,-31.50737313,150.68047839,,
"We’re atWork Australia, an employment services provider helping Australians with disability, illness or injury find meaningful and lasting employment. We work hard to find the right person the right job, and have been doing so for over 15 years. 
Let’s get started, call us today on 1300 080 856.",atWork Australia Pty Ltd,NSW,2262,BJ68,DESB,New,,,,All Job Seekers,SAN REMO,Camp Breakaway 80 Highview Ave,1300 080 856,-33.21670145,151.52839931,,
"We’re atWork Australia, an employment services provider helping Australians with disability, illness or injury find meaningful and lasting employment. We work hard to find the right person the right job, and have been doing so for over 15 years. 
Let’s get started, call us today on 1300 080 856.",atWork Australia Pty Ltd,NSW,2560,BJ78,DESB,New,,,,All Job Seekers,AIRDS,Land & Housing Corporation 52 Riverside Drive,1300 080 856,-34.08579919,150.82838625,,
"We’re atWork Australia, an employment services provider helping Australians with disability, illness or injury find meaningful and lasting employment. We work hard to find the right person the right job, and have been doing so for over 15 years. 
Let’s get started, call us today on 1300 080 856.",atWork Australia Pty Ltd,NSW,2153,BJ88,DESB,New,,,,All Job Seekers,BAULKHAM HILLS,16 Arthur St,1300 080 856,-33.76500322,150.99016192,,
"We’re atWork Australia, an employment services provider helping Australians with disability, illness or injury find meaningful and lasting employment. We work hard to find the right person the right job, and have been doing so for over 15 years. 
Let’s get started, call us today on 1300 080 856.",atWork Australia Pty Ltd,NSW,2516,BJ98,DESB,New,,,,All Job Seekers,BULLI,Bulli Community Centre 328 Princes Highway,1300 080 856,-34.33821106,150.90931771,,
"We’re atWork Australia, an employment services provider helping Australians with disability, illness or injury find meaningful and lasting employment. We work hard to find the right person the right job, and have been doing so for over 15 years. 
Let’s get started, call us today on 1300 080 856.",atwork Australia Pty Ltd,NSW,2526,BK08,DESB,New,,,,All Job Seekers,UNANDERRA,Unanderra Community Centre Princes Hwy &Factory Rd,1300 080 856,-34.45721184,150.84526547,,
"We’re atWork Australia, an employment services provider helping Australians with disability, illness or injury find meaningful and lasting employment. We work hard to find the right person the right job, and have been doing so for over 15 years. 
Let’s get started, call us today on 1300 080 856.",atwork Australia Pty Ltd,NSW,2477,BK18,DESB,New,,,,All Job Seekers,ALSTONVILLE,Alstonville Community Centre 42-46 Commercial Road,1300 080 856,-28.83833898,153.44107395,,
"We’re atWork Australia, an employment services provider helping Australians with disability, illness or injury find meaningful and lasting employment. We work hard to find the right person the right job, and have been doing so for over 15 years. 
Let’s get started, call us today on 1300 080 856.",atwork Australia Pty Ltd,NSW,2541,BK28,DESB,New,,,,All Job Seekers,BOMADERRY,Bomaderry Community Centre 19 Birriley Street,1300 080 856,-34.85030799,150.60795375,,
"We’re atWork Australia, an employment services provider helping Australians with disability, illness or injury find meaningful and lasting employment. We work hard to find the right person the right job, and have been doing so for over 15 years. 
Let’s get started, call us today on 1300 080 856.",atwork Australia Pty Ltd,NSW,2541,BK38,DESB,New,,,,All Job Seekers,NOWRA,East Nowra Neighbourhood Centre 2/80 Park Road,1300 080 856,-34.89630641,150.61263992,,
,WDEA Works,VIC,3585,BK58,DESB,New,,,,All Job Seekers,SWAN HILL,98-100 Gray St,,-35.34597519,143.54503298,,
,The Personnel Group Ltd,VIC,3629,BL58,DESB,New,,,,All Job Seekers,MOOROOPNA,"23 Alexandra Street Mooroopna Education and Activity Centre,",(03) 5821 5888,-36.39307459,145.35835834,,
"We’re atWork Australia, an employment services provider helping Australians with disability, illness or injury find meaningful and lasting employment. We work hard to find the right person the right job, and have been doing so for over 15 years. 
Let’s get started, call us today on 1300 080 856.
",atWork Australia Pty Ltd,NSW,2017,BL68,DESB,2,,,,All Job Seekers,ZETLAND,Tote Building 100 Joynton Ave,1300 080 856,-33.90446858,151.20953380,,
"We’re atWork Australia, an employment services provider helping Australians with disability, illness or injury find meaningful and lasting employment. We work hard to find the right person the right job, and have been doing so for over 15 years. 
Let’s get started, call us today on 1300 080 856.",atWork Australia Pty Ltd,WA,6112,BL78,DESB,3,,,,All Job Seekers,ARMADALE,Suite 1 36 Commerce Avenue,1300 080 856,-32.15575773,116.01340796,,
,Joblink Plus,NSW,2333,BLCZ,DESB,3,,,,All Job Seekers,MUSWELLBROOK,Shop 2 77-85 Bridge Street,(02) 6541 8100,-32.26232373,150.88999125,,
,Jobs Australia,NSW,2354,BLJZ,DESB,4,,,,All Job Seekers,WALCHA,2W Fitzroy Street,(02) 6777 2767,-30.98461990,151.59257533,,
,Jobs Australia,NSW,2358,BLOZ,DESB,4,,,,All Job Seekers,URALLA,43 Bridge Street,(02) 6778 3180,-30.64120311,151.49983057,,
,Jobs Australia,NSW,2360,BLPZ,DESB,3,,,,All Job Seekers,INVERELL,144 Byron St,(02) 6722 4683,-29.77189690,151.11317546,,
,Jobs Australia,NSW,2365,BLQZ,DESB,4,,,,All Job Seekers,GUYRA,91A Bradley Street,(02) 6779 1287,-30.21743120,151.67224323,,
"TURSA is a very successful not-for profit Provider of employment services  through individualised services and support.TURSA  services are provided by real people in convenient locations  - not servicing that is remote, or electronic, or bycall centre.  Real people, real services. Open Full Time 8.30am to 5.00pm Mon to Fri.   www.tursa.com.au",TURSA,NSW,2450,BM20,DESB,5,,,,All Job Seekers,COFFS HARBOUR,150-152 West High Street,(02) 6651 4450,-30.29617809,153.11346005,,
,WISE Employment Ltd,QLD,4209,BM38,DESB,New,,,,All Job Seekers,UPPER COOMERA,90 Reserve Road,,-27.86824681,153.30449530,,
,The Personnel Group Ltd,ACT,2606,BM58,DESB,New,,,,All Job Seekers,PHILLIP,1/30 Corinna Street,(02) 6221 3448,-35.34593401,149.08377117,,
,The Personnel Group Ltd,ACT,2900,BM68,DESB,New,,,,All Job Seekers,TUGGERANONG,Tuggeranong Library 175/245 Cowlishaw St,(02) 6221 3448,-35.41569433,149.06987138,,
"To inspire and empower people through employment. AXIS Employment is a provider that can help you find a job. If you have a disability, injury or illness and are eager to find or stay in employment, AXIS Employment will help you achieve these goals. We help thousands of people to get work every year through our Disability Employment Services programs.",AXIS Employment,VIC,3498,BM78,DESB,New,,,,All Job Seekers,IRYMPLE,"One Hub, 2128 Fifteenth Street,",(03) 5021 0779,-34.23415382,142.16689215,,
,Atwork Australia Pty Ltd,NSW,2450,BM88,DESB,New,,,,All Job Seekers,CORAMBA,"Canopi Learning Solutions, 1492A Coramba Road,",1300 080 856,-30.22332974,153.02015910,,
"TURSA is a very successful not-for profit Provider of employment services  through individualised services and support. TURSA  services are provided by real people in convenient locations  - not servicing that is remote, or electronic, or by call centre.  Real people, real services. Open Full Time 8.30am to 5.00pm Mon to Fri.   www.tursa.com.au",TURSA,NSW,2463,BMNZ,DESB,5,,,,All Job Seekers,MACLEAN,48 River Street,(02) 6645 5111,-29.45856587,153.19679102,,
"DVJS (formerly Dandenong Valley Job Support) has been assisting job seekers with disabilities access and maintain open employment since 1993 and is responsible for thousands of positive life-changing experiences. WE find jobs that match your skills and interests and support you and your employer to ensure that the job, is not just a job but a career.",DVJS Employment Solutions,VIC,3977,BN40,DESB,5,,,,All Job Seekers,CRANBOURNE,Level 1 15 Childers Street,1300 385 738,-38.11184348,145.28474539,,
,Atwork Australia Pty Ltd,QLD,4811,BN58,DESB,New,,,,All Job Seekers,WULGURU,Well Being Medical Centre 340 Stuart Drive,1300 080 856,-19.32793376,146.81796788,,
,Atwork Australia Pty Ltd,QLD,4573,BN68,DESB,New,,,,All Job Seekers,COOLUM BEACH,Matlow Place Suite 9/19 Birtwill,1300 080 856,-26.53055571,153.06952824,,
,Atwork Australia Pty Ltd,NSW,2564,BN78,DESB,New,,,,All Job Seekers,MACQUARIE FIELDS,"Glennquarie Library, 12 Brooks Street,",1300 080 856,-33.98614904,150.89039090,,
,Your Employment Success,SA,5041,BN88,DESB,2,,,,Deaf and Hearing Impaired,WESTBOURNE PARK,367 Goodwood Rd,(08) 8417 5599,-34.96845070,138.59134276,,
,Your Employment Success,SA,5015,BN98,DESB,4,,,,Deaf and Hearing Impaired,PORT ADELAIDE,27-29 McLaren Parade,(08) 8417 5599,-34.83426943,138.51236021,,
,Vision Australia Limited,QLD,4151,BP30,DESB,3,,,,Blind and Vision Impaired,COORPAROO,373 Old Cleveland Road,(07) 3727 2345,-27.49354781,153.06188652,,
,OCTEC West Wyalong Employment Service,NSW,2671,BPCZ,DESB,3,,,,All Job Seekers,WEST WYALONG,89-91 Main Street,(02) 6851 6966,-33.92291946,147.20705766,,
,Joblink Plus,NSW,2830,BQKZ,DESB,2,,,,All Job Seekers,DUBBO,Ground Floor 138 Talbragar Street,(02) 6841 6300,-32.24517576,148.60643604,,
,OCTEC Condobolin Employment Service,NSW,2877,BQZZ,DESB,3,,,,All Job Seekers,CONDOBOLIN,18 William Street,(02) 6851 6966,-33.09002000,147.14649750,,
,Atwork Australia Pty Ltd,WA,6107,BW18,DESB,2,,,,All Job Seekers,CANNINGTON,Unit 22/53 Cecil Avenue,1300 080 856,-32.01473163,115.94139585,,
"Sureway tailors a unique disability employment program to meet the individual needs of job seekers.
We provide a range of training and development opportunities and pride ourselves on our ability to engage our job seekers with the right employer. 
We’ve been delivering employment services for over twenty years  and have helped thousands of people find work",Sureway Employment and Training,NSW,2880,BXCZ,DESB,5,,,,All Job Seekers,BROKEN HILL,"336 Argent Street,",1300 787 392,-32.32108713,141.55287018,,
"Where others see problems, we see possibilities.
We’ve been believing in people for more than 30 years, it’s a part of who we are.
We want to hear your story, so we can help find opportunities.
We don’t just team up with you, we get in your corner. Because sometimes just knowing someone has your back, is all you need to take the next step...
",Campbell Page,NSW,2536,BXVZ,DESB,4,,,,All Job Seekers,BATEMANS BAY,1 Museum Place,(02) 4411 8470,-35.71175485,150.17727015,,
"VERTO is an award winning, not-for-profit organisation assisting businesses and individuals with all their employment and training needs. Our expertise covers a range of areas including Australian Apprenticeships services, Disability Employment Services, jobactive employment services and training. Our mission is to positively impact the lives of individuals.",VERTO,NSW,2795,BZFZ,DESB,4,,,,All Job Seekers,BATHURST,227 Howick Street,1300 483 786,-33.41426730,149.57970707,,
,Your Employment Solutions,QLD,4519,C108,DESB,3,,,,All Job Seekers,BEERWAH,39 Simpson Street,,-26.85617667,152.95795587,,
,Your Employment Solutions,QLD,4560,C118,DESB,3,,,,All Job Seekers,BLI BLI,87 Willis Road,,-26.61423850,153.03644353,,
,Your Employment Solutions,QLD,4551,C128,DESB,3,,,,All Job Seekers,CALOUNDRA,74 Bulcock Street C/o Red Cross Employment Services,,-26.79832852,153.12752393,,
,Your Employment Solutions,QLD,4573,C138,DESB,3,,,,All Job Seekers,COOLUM BEACH,Park Street Next to Library,,-26.53056827,153.06952210,,
,Your Employment Solutions,QLD,4563,C148,DESB,3,,,,All Job Seekers,COOROY,9 Maple Street,,-26.41521307,152.91060344,,
,Your Employment Solutions,QLD,4550,C158,DESB,3,,,,All Job Seekers,LANDSBOROUGH,478 Old Landsborough Road,,-26.81045266,152.96590634,,
,Your Employment Solutions,QLD,4551,C168,DESB,3,,,,All Job Seekers,LITTLE MOUNTAIN,119 Sugar Bay Road,,-26.78515285,153.10584716,,
,Your Employment Solutions,QLD,4552,C178,DESB,3,,,,All Job Seekers,MALENY,55 Maple Street,,-26.76175553,152.85202791,,
,LEAD Employment ACT,ACT,2600,CDGZ,DESB,3,,,,All Job Seekers,CANBERRA,Level 3 54 Marcus Clarke Street,(02) 6257 7088,-35.27644935,149.12686648,,
"We’re atWork Australia, an employment services provider helping Australians with disability, illness or injury find meaningful and lasting employment. We work hard to find the right person the right job, and have been doing so for over 15 years. 
Let’s get started, call us today on 1300 080 856.   ",atWork Australia Pty Ltd,WA,6027,D160,DESB,3,,,,Mental Health,JOONDALUP,Units 1 & 2 48 Central Walk,1300 080 856,-31.74255000,115.77081000,,
"We’re atWork Australia, an employment services provider helping Australians with disability, illness or injury find meaningful and lasting employment. We work hard to find the right person the right job, and have been doing so for over 15 years. 
Let’s get started, call us today on 1300 080 856.   ",atWork Australia Pty Ltd,WA,6027,D160,DESB,4,,,,All Job Seekers,JOONDALUP,Units 1 & 2 48 Central Walk,1300 080 856,-31.74255000,115.77081000,,
"Forrest Personnel have been Disability Employment specialists since 1986, matching local people with local employers for over 30 years.  We provide specialist help for people with a disability, illness or injury to source and secure sustainable employment. This site provides full time services from Monday to Friday 8.30am - 4.30pm.          ",Forrest Personnel,WA,6450,D230,DESB,3,,,,All Job Seekers,ESPERANCE,63A Dempster St,(08) 9792 3333,-33.85844000,121.89351000,,
"breakthru is an Australian for purpose organisation established in 1992. We believe work is fundamental to living a fulfilling and productive life, and that a job enables everyone to play a valued role in the life of their community. That is why we set out to ensure people with disabilities have access to a range of programs that best match their needs.",breakthru,QLD,4006,D990,DESB,4,,,,All Job Seekers,Fortitude Valley,108 Alfred Street,1800 767 212,-27.45608013,153.03318235,,
,The Personnel Group Ltd,VIC,3690,DA98,DESB,New,,,,All Job Seekers,WEST WODONGA,Felltimber Community Centre 189 Melrose Drive,(02) 6056 1833,-36.13566409,146.86268282,,
"Where others see problems, we see possibilities.
We’ve been believing in people for more than 30 years, it’s a part of who we are.
We want to hear your story, so we can help find opportunities.
We don’t just team up with you, we get in your corner. Because sometimes just knowing someone has your back, is all you need to take the next step...
",Campbell Page,NSW,2539,DATZ,DESB,3,,,,All Job Seekers,ULLADULLA,Units 31-32 Ulladulla Plaza 107-109 Princes Highway,(02) 4411 8440,-35.35858215,150.47355359,,
,Joblink Plus,NSW,2370,DAXZ,DESB,2,,,,All Job Seekers,GLEN INNES,271 Grey St,(02) 9658 3100,-29.73823037,151.73628058,,
,Wise Employment Ltd,SA,5074,DB18,DESB,New,,,,All Job Seekers,CAMPBELLTOWN,531 Lower North East Rd,(08) 8408 9200,-34.88457326,138.65735491,,
"We’re atWork Australia, an employment services provider helping Australians with disability, illness or injury find meaningful and lasting employment. We work hard to find the right person the right job, and have been doing so for over 15 years. 
Let’s get started, call us today on 1300 080 856.",Atwork Australia Pty Ltd,QLD,4006,DC18,DESB,New,,,,All Job Seekers,FORTITUDE VALLEY,14B2 Central Brunswick 421 Brunswick Street,1300 080 856,-27.46027059,153.03700493,,
"We’re atWork Australia, an employment services provider helping Australians with disability, illness or injury find meaningful and lasting employment. We work hard to find the right person the right job, and have been doing so for over 15 years. 
Let’s get started, call us today on 1300 080 856.",Atwork Australia Pty Ltd,QLD,4012,DC28,DESB,New,,,,All Job Seekers,NUNDAH,23 Nundah St,1300 080 856,-27.39998178,153.06165086,,
"We’re atWork Australia, an employment services provider helping Australians with disability, illness or injury find meaningful and lasting employment. We work hard to find the right person the right job, and have been doing so for over 15 years. 
Let’s get started, call us today on 1300 080 856.",Atwork Australia Pty Ltd,QLD,4157,DC38,DESB,New,,,,All Job Seekers,CAPALABA,29 Loraine St,1300 080 856,-27.52244172,153.19230770,,
"We’re atWork Australia, an employment services provider helping Australians with disability, illness or injury find meaningful and lasting employment. We work hard to find the right person the right job, and have been doing so for over 15 years. 
Let’s get started, call us today on 1300 080 856.",Atwork Australia Pty Ltd,QLD,4120,DC48,DESB,New,,,,All Job Seekers,STONES CORNER,3/426 Logan Road,1300 080 856,-27.50089459,153.04621726,,
"We’re atWork Australia, an employment services provider helping Australians with disability, illness or injury find meaningful and lasting employment. We work hard to find the right person the right job, and have been doing so for over 15 years. 
Let’s get started, call us today on 1300 080 856.",Atwork Australia Pty Ltd,QLD,4122,DC58,DESB,New,,,,All Job Seekers,UPPER MOUNT GRAVATT BC,Ground Floor Suite 2B 50-56 Sanders St,1300 080 856,-27.55849113,153.08268182,,
"We’re atWork Australia, an employment services provider helping Australians with disability, illness or injury find meaningful and lasting employment. We work hard to find the right person the right job, and have been doing so for over 15 years. 
Let’s get started, call us today on 1300 080 856.",Atwork Australia Pty Ltd,VIC,3128,DC68,DESB,New,,,,All Job Seekers,BOX HILL,AMES Building Off G3 Gnd Flr 30-32 Prospect Street,1300 080 856,-37.81780877,145.11719102,,
"We’re atWork Australia, an employment services provider helping Australians with disability, illness or injury find meaningful and lasting employment. We work hard to find the right person the right job, and have been doing so for over 15 years. 
Let’s get started, call us today on 1300 080 856.",Atwork Australia Pty Ltd,VIC,3192,DC78,DESB,New,,,,All Job Seekers,CHELTENHAM,30 Station Rd,1300 080 856,-37.96745014,145.05721467,,
"We’re atWork Australia, an employment services provider helping Australians with disability, illness or injury find meaningful and lasting employment. We work hard to find the right person the right job, and have been doing so for over 15 years. 
Let’s get started, call us today on 1300 080 856.",Atwork Australia Pty Ltd,VIC,3175,DC88,DESB,New,,,,All Job Seekers,DANDENONG,Suite 7 50-54 Robinson Street,1300 080 856,-37.98428114,145.21184995,,
"We’re atWork Australia, an employment services provider helping Australians with disability, illness or injury find meaningful and lasting employment. We work hard to find the right person the right job, and have been doing so for over 15 years. 
Let’s get started, call us today on 1300 080 856.",Atwork Australia Pty Ltd,VIC,3150,DC98,DESB,New,,,,All Job Seekers,GLEN WAVERLEY,236 Blackburn Rd,1300 080 856,-37.87379488,145.14846052,,
"TURSA is a very successful not-for profit Provider of employment services  through individualised services and support. TURSA  services are provided by real people in convenient locations  - not servicing that is remote, or electronic, or by call centre.  Real people, real services. Open Full Time 8.30am to 5.00pm Mon to Fri.   www.tursa.com.au",TURSA,NSW,2464,DCSZ,DESB,5,,,,All Job Seekers,YAMBA,Shop 1 22 Coldstream Street,(02) 6646 1568,-29.43732263,153.36051186,,
,BEST Employment Ltd,NSW,2834,DCYZ,DESB,1,,,,All Job Seekers,LIGHTNING RIDGE,35 Morilla Street,(02) 6829 4054,-29.42744279,147.97910810,,
"TURSA is a regional, not-for profit employment and trainingProvider delivering individualised and professional servicesfor jobseekers including organising work experience andaccredited training options. Open Full Time 8.30am to 5.00pmMon to Fri.1800 670 914 or www.tursa.com.au",TURSA,NSW,2474,DCZZ,DESB,3,,,,All Job Seekers,KYOGLE,77 Summerland Way,(02) 6632 3399,-28.62032663,153.00323676,,
"We’re atWork Australia, an employment services provider helping Australians with disability, illness or injury find meaningful and lasting employment. We work hard to find the right person the right job, and have been doing so for over 15 years. 
Let’s get started, call us today on 1300 080 856.",Atwork Australia Pty Ltd,VIC,3141,DD08,DESB,New,,,,All Job Seekers,SOUTH YARRA,Level 3 Suite 301 9-11 Claremont Street,1300 080 856,-37.83786784,144.99349184,,
"We’re atWork Australia, an employment services provider helping Australians with disability, illness or injury find meaningful and lasting employment. We work hard to find the right person the right job, and have been doing so for over 15 years. 
Let’s get started, call us today on 1300 080 856.",Atwork Australia Pty Ltd,VIC,3049,DD18,DESB,2,,,,Mental Health,ATTWOOD,202 Erinbank Cr,1300 080 856,-37.67066136,144.89699879,,
"We’re atWork Australia, an employment services provider helping Australians with disability, illness or injury find meaningful and lasting employment. We work hard to find the right person the right job, and have been doing so for over 15 years. 
Let’s get started, call us today on 1300 080 856.",Atwork Australia Pty Ltd,VIC,3047,DD28,DESB,1,,,,Mental Health,BROADMEADOWS,Banksia Gardens Community Services 71-81 Pearcedale Pde,1300 080 856,-37.67633207,144.91781386,,
"We’re atWork Australia, an employment services provider helping Australians with disability, illness or injury find meaningful and lasting employment. We work hard to find the right person the right job, and have been doing so for over 15 years. 
Let’s get started, call us today on 1300 080 856.",Atwork Australia Pty Ltd,VIC,3056,DD38,DESB,4,,,,Mental Health,BRUNSWICK,861 Sydney Rd,1300 080 856,-37.75599400,144.96383400,,
"We’re atWork Australia, an employment services provider helping Australians with disability, illness or injury find meaningful and lasting employment. We work hard to find the right person the right job, and have been doing so for over 15 years. 
Let’s get started, call us today on 1300 080 856.",Atwork Australia Pty Ltd,VIC,3429,DD48,DESB,2,,,,Mental Health,SUNBURY,81 Oshanassy St,1300 080 856,-37.58180422,144.73007954,,
"We’re atWork Australia, an employment services provider helping Australians with disability, illness or injury find meaningful and lasting employment. We work hard to find the right person the right job, and have been doing so for over 15 years. 
Let’s get started, call us today on 1300 080 856.",Atwork Australia Pty Ltd,VIC,3084,DD58,DESB,5,,,,Mental Health,HEIDELBERG,Suite 5 101-111 Burgundy Street,1300 080 856,-37.75655095,145.06661850,,
"We’re atWork Australia, an employment services provider helping Australians with disability, illness or injury find meaningful and lasting employment. We work hard to find the right person the right job, and have been doing so for over 15 years. 
Let’s get started, call us today on 1300 080 856.",Atwork Australia Pty Ltd,VIC,3072,DD68,DESB,5,,,,Mental Health,PRESTON,261 High St,1300 080 856,-37.74412046,145.00260511,,
"We’re atWork Australia, an employment services provider helping Australians with disability, illness or injury find meaningful and lasting employment. We work hard to find the right person the right job, and have been doing so for over 15 years. 
Let’s get started, call us today on 1300 080 856.",Atwork Australia Pty Ltd,VIC,3067,DD78,DESB,2,,,,Mental Health,ABBOTSFORD,6 Paterson Street,1300 080 856,-37.80280807,145.00108458,,
"We’re atWork Australia, an employment services provider helping Australians with disability, illness or injury find meaningful and lasting employment. We work hard to find the right person the right job, and have been doing so for over 15 years. 
Let’s get started, call us today on 1300 080 856.",Atwork Australia Pty Ltd,VIC,3051,DD88,DESB,2,,,,Mental Health,NORTH MELBOURNE,North Melbourne Community Centre 49-53 Buncle Street,1300 080 856,-37.79310879,144.93995741,,
"We’re atWork Australia, an employment services provider helping Australians with disability, illness or injury find meaningful and lasting employment. We work hard to find the right person the right job, and have been doing so for over 15 years. 
Let’s get started, call us today on 1300 080 856.",Atwork Australia Pty Ltd,VIC,3205,DD98,DESB,3,,,,Mental Health,SOUTH MELBOURNE,219 Park St,1300 080 856,-37.83584158,144.96112194,,
"TURSA is a very successful not-for profit Provider of employment services  through individualised services and support. TURSA  services are provided by real people in convenient locations  - not servicing that is remote, or electronic, or by call centre.  Real people, real services. Open Full Time 8.30am to 5.00pm Mon to Fri.   www.tursa.com.au",TURSA,NSW,2487,DDAZ,DESB,4,,,,All Job Seekers,KINGSCLIFF,Level 1 38-42 Pearl Street,(02) 6674 0699,-28.25499976,153.57431282,,
"Where others see problems, we see possibilities.
We’ve been believing in people for more than 30 years, it’s a part of who we are.
We want to hear your story, so we can help find opportunities.
We don’t just team up with you, we get in your corner. Because sometimes just knowing someone has your back, is all you need to take the next step...
",Campbell Page,NSW,2541,DEIZ,DESB,3,,,,All Job Seekers,NOWRA,"Level 1, 132 Junction Street",(02) 4411 8440,-34.88200575,150.60572413,,
,Vision Australia Limited,NSW,2229,DJ60,DESB,3,,,,Blind and Vision Impaired,CARINGBAH,301 Kingsway,(02) 8525 9016,-34.04298325,151.12400497,,
,SensWide Services (Expression Australia),VIC,3072,DJ70,DESB,3,,,,"Gay, Lesbian, Bisexual, Transgender and Intersex",PRESTON,426 High Street TTY:03 9614 3062,(03) 8620 7155,-37.73712007,145.00443481,,
,SensWide Services (Expression Australia),VIC,3072,DJ70,DESB,3,,,,Sensory Impairment (Hearing or Vision Loss),PRESTON,426 High Street TTY:03 9614 3062,(03) 8620 7155,-37.73712007,145.00443481,,
"TURSA is a very successful not-for profit Provider of employment services  through individualised services and support. TURSA  services are provided by real people in convenient locations  - not servicing that is remote, or electronic, or by call centre.  Real people, real services. Open Full Time 8.30am to 5.00pm Mon to Fri.   www.tursa.com.au",TURSA,NSW,2482,EAEZ,DESB,3,,,,All Job Seekers,MULLUMBIMBY,Shop 1 97-99 Stuart Street,(02) 6684 1822,-28.55378350,153.50039058,,
"Where others see problems, we see possibilities.
We’ve been believing in people for more than 30 years, it’s a part of who we are.
We want to hear your story, so we can help find opportunities.
We don’t just team up with you, we get in your corner. Because sometimes just knowing someone has your back, is all you need to take the next step...
",Campbell Page,NSW,2540,EASZ,DESB,3,,,,All Job Seekers,VINCENTIA,Shop 14 5 Burton Street Stocklands Mall,(02) 4411 8440,-35.07435928,150.67099610,,
"Where others see problems, we see possibilities.
We’ve been believing in people for more than 30 years, it’s a part of who we are.
We want to hear your story, so we can help find opportunities.
We don’t just team up with you, we get in your corner. Because sometimes just knowing someone has your back, is all you need to take the next step...
",Campbell Page,NSW,2533,EAVZ,DESB,3,,,,All Job Seekers,KIAMA,"2/125 Terralong Street,",(02) 4411 8416,-34.67382251,150.84437098,,
"Sureway tailors a unique disability employment program to meet the individual needs of job seekers.
We provide a range of training and development opportunities and pride ourselves on our ability to engage our job seekers with the right employer. 
We’ve been delivering employment services for over twenty years  and have helped thousands of people find work",Sureway Employment & Training,NSW,2640,EBJZ,DESB,5,,,,All Job Seekers,ALBURY,529 Kiewa Street,1300 787 392,-36.07901836,146.91553511,,
"TURSA is a very successful not-for profit Provider of employment services  through individualised services and support. TURSA  services are provided by real people in convenient locations  - not servicing that is remote, or electronic, or by call centre.  Real people, real services. Open Full Time 8.30am to 5.00pm Mon to Fri.   www.tursa.com.au",TURSA,NSW,2483,EBRZ,DESB,3,,,,All Job Seekers,BRUNSWICK HEADS,Shops 1-3 9 Fingal Street,(02) 6685 0466,-28.54028624,153.55110077,,
,Mission Australia,NSW,2154,EBVZ,DESB,3,,,,All Job Seekers,CASTLE HILL,5/6-8 Old Castle Hill Road,0490 891 344,-33.73075236,151.00836174,,
"Sureway tailors a unique disability employment program to meet the individual needs of job seekers.
We provide a range of training and development opportunities and pride ourselves on our ability to engage our job seekers with the right employer. 
We’ve been delivering employment services for over twenty years  and have helped thousands of people find work",Sureway Employment & Training,NSW,2646,EBZZ,DESB,4,,,,All Job Seekers,COROWA,88 Sander Street,1300 787 392,-35.99889538,146.39062688,,
"Sureway tailors a unique disability employment program to meet the individual needs of job seekers.
We provide a range of training and development opportunities and pride ourselves on our ability to engage our job seekers with the right employer. 
We’ve been delivering employment services for over twenty years and have helped thousands of people find work.",Sureway Employment and Training,NSW,2830,ECKZ,DESB,5,,,,All Job Seekers,DUBBO,Shop 1 24 Talbragar Street,1300 787 392,-32.24462197,148.60238028,,
"Sureway tailors a unique disability employment program to meet the individual needs of job seekers.
We provide a range of training and development opportunities and pride ourselves on our ability to engage our job seekers with the right employer. 
We’ve been delivering employment services for over twenty years and have helped thousands of people find work.",Sureway Employment & Training,NSW,2871,ECNZ,DESB,1,,,,All Job Seekers,FORBES,96 Lachlan Street,1300 787 392,-33.38437874,148.00849458,,
"Sureway tailors a unique disability employment program to meet the individual needs of job seekers.
We provide a range of training and development opportunities and pride ourselves on our ability to engage our job seekers with the right employer. 
We’ve been delivering employment services for over twenty years  and have helped thousands of people find work",Sureway Employment & Training,NSW,2680,ECSZ,DESB,4,,,,All Job Seekers,GRIFFITH,Shop  8 454 Banna Avenue,1300 787 392,-34.28769343,146.04073239,,
,Jobs Australia,NSW,2380,ECTZ,DESB,2,,,,All Job Seekers,GUNNEDAH,91A Marquis Street,(02) 6742 4193,-30.97896271,150.25287335,,
,Mission Australia,NSW,2077,ECXZ,DESB,3,,,,All Job Seekers,HORNSBY,Hornsby Library 28-44 George Street,0490 890 637,-33.70286296,151.09962357,,
"Sureway tailors a unique disability employment program to meet the individual needs of job seekers.
We provide a range of training and development opportunities and pride ourselves on our ability to engage our job seekers with the right employer. 
We’ve been delivering employment services for over twenty years  and have helped thousands of people find work",Sureway Employment & Training,NSW,2705,EDKZ,DESB,3,,,,All Job Seekers,LEETON,50 Chelmsford Place,1300 787 392,-34.55115912,146.40713897,,
,Mission Australia,NSW,2160,EDTZ,DESB,1,,,,All Job Seekers,MERRYLANDS,"Shop 2027, Stockland Merrylands, McFarlane Street",(02) 8633 2221,-33.83533012,150.98920338,,
"Sureway tailors a unique disability employment program to meet the individual needs of job seekers.
We provide a range of training and development opportunities and pride ourselves on our ability to engage our job seekers with the right employer. 
We’ve been delivering employment services for over twenty years  and have helped thousands of people find work",Sureway Employment & Training,NSW,2700,EDXZ,DESB,3,,,,All Job Seekers,NARRANDERA,Library Multi Purpose Room 39-51 East Street,1300 787 392,-34.74367340,146.55413105,,
,MAX Employment,NSW,2100,EDYZ,DESB,3,,,,All Job Seekers,BROOKVALE,113/20 Dale Street,(02) 9938 0100,-33.76401065,151.26824540,,
"Where others see problems, we see possibilities.
We’ve been believing in people for more than 30 years, it’s a part of who we are.
We want to hear your story, so we can help find opportunities.
We don’t just team up with you, we get in your corner. Because sometimes just knowing someone has your back, is all you need to take the next step...
",Campbell Page,NSW,2537,EEBZ,DESB,5,,,,All Job Seekers,MORUYA,47 Vulcan St,(02) 4411 8470,-35.90877280,150.08078507,,
"Sureway tailors a unique disability employment program to meet the individual needs of job seekers.
We provide a range of training and development opportunities and pride ourselves on our ability to engage our job seekers with the right employer. 
We’ve been delivering employment services for over twenty years  and have helped thousands of people find work",Sureway Employment & Training,NSW,2650,EEXZ,DESB,3,,,,All Job Seekers,WAGGA WAGGA,55 Tompson Street,1300 787 392,-35.11157605,147.37023074,,
"Sureway tailors a unique disability employment program to meet the individual needs of job seekers.
We provide a range of training and development opportunities and pride ourselves on our ability to engage our job seekers with the right employer. 
We’ve been delivering employment services for over twenty years and have helped thousands of people find work.",Sureway Employment and Training,NSW,2820,EEZZ,DESB,5,,,,All Job Seekers,WELLINGTON,13 Nanima Crescent,1300 787 392,-32.56564455,148.96109442,,
"TURSA is a very successful not-for profit Provider of employment services  through individualised services and support. TURSA  services are provided by real people in convenient locations  - not servicing that is remote, or electronic, or by call centre.  Real people, real services. Open Full Time 8.30am to 5.00pm Mon to Fri.   www.tursa.com.au",TURSA,NSW,2448,EF60,DESB,4,,,,All Job Seekers,Nambucca Heads,Shop 3 41 Bowra Street,(02) 6568 5207,-30.64154744,153.00140869,,
"TURSA is a very successful not-for profit Provider of employment services  through individualised services and support. TURSA  services are provided by real people in convenient locations  - not servicing that is remote, or electronic, or by call centre.  Real people, real services. Open Full Time 8.30am to 5.00pm Mon to Fri.   www.tursa.com.au",TURSA,QLD,4210,EF70,DESB,3,,,,All Job Seekers,Oxenford,Shop 6 Cottonwood Plaza 5 Cottonwood Place,(07) 5519 3146,-27.89237891,153.31209770,,
"TURSA is a very successful not-for profit Provider of employment services  through individualised services and support. TURSA  services are provided by real people in convenient locations  - not servicing that is remote, or electronic, or by call centre.  Real people, real services. Open Full Time 8.30am to 5.00pm Mon to Fri.   www.tursa.com.au",TURSA,QLD,4226,EF80,DESB,5,,,,All Job Seekers,Robina,"Suites 1, 2, 3 & 5B 140 Robina Town Centre Drive",(07) 5562 0458,-28.07971495,153.38301054,,
,Community Bridging Services (CBS) Inc,SA,5343,EF90,DESB,5,,,,All Job Seekers,Berri,Shop 2 30 Kay Avenue,(08) 8582 3991,-34.28106458,140.60750605,,
"Where others see problems, we see possibilities.
We’ve been believing in people for more than 30 years, it’s a part of who we are.
We want to hear your story, so we can help find opportunities.
We don’t just team up with you, we get in your corner. Because sometimes just knowing someone has your back, is all you need to take the next step...
",Campbell Page,NSW,2546,EFBZ,DESB,4,,,,All Job Seekers,NAROOMA,Shop 33 Narooma Plaza 183 Princes Hwy,(02) 4411 8470,-36.22249075,150.12758602,,
"Sureway tailors a unique disability employment program to meet the individual needs of job seekers.
We provide a range of training and development opportunities and pride ourselves on our ability to engage our job seekers with the right employer. 
We’ve been delivering employment services for over twenty years and have helped thousands of people find work.",Sureway Employment & Training,NSW,2671,EFDZ,DESB,1,,,,All Job Seekers,WEST WYALONG,89-91 Main Street,1300 787 392,-33.92291946,147.20705766,,
,Joblink Plus,NSW,2823,EFTZ,DESB,2,,,,All Job Seekers,TRANGIE,35 Dandaloo Street,(02) 6841 6300,-32.03219996,147.98202601,,
,Joblink Plus,NSW,2824,EFWZ,DESB,2,,,,All Job Seekers,WARREN,8b Burton Street,(02) 6883 7600,-31.70079349,147.83565817,,
"EPIC Assist has been helping people with disability secure meaningful, sustainable employment for almost 30 years. We understand the importance of staying on your employment journey for as long as you need us. We don’t walk away; we provide on-the-job, individualised support for each and every person. We'll work with you to help you realise what's possible.",Epic Employment Service Inc,QLD,4625,EG30,DESB,2,,,,All Job Seekers,Gayndah,8 Meson Street,(07) 4161 2876,-25.62376083,151.60807525,,
"EPIC Assist has been helping people with disability secure meaningful, sustainable employment for almost 30 years. We understand the importance of staying on your employment journey for as long as you need us. We don’t walk away; we provide on-the-job, individualised support for each and every person. We'll work with you to help you realise what's possible.",Epic Employment Service Inc,QLD,4212,EG50,DESB,3,,,,All Job Seekers,Helensvale,"Unit 35A, Helensvale Plaza, 12 Sir John Overall Dr",(07) 5519 4218,-27.92350759,153.33464493,,
"EPIC Assist has been helping people with disability secure meaningful, sustainable employment for almost 30 years. We understand the importance of staying on your employment journey for as long as you need us. We don’t walk away; we provide on-the-job, individualised support for each and every person. We'll work with you to help you realise what's possible.",Epic Employment Service Inc,QLD,4655,EG60,DESB,2,,,,All Job Seekers,Pialba,Unit 2 and 3 6 Neils Street,(07) 4124 1238,-25.28647707,152.84550413,,
"EPIC has been helping people with disability secure meaningful, sustainable employment for almost 30 years. We understand the importance of staying on your employment journey for as long as you need us. We don’t walk away; we provideon-the-job, individualised support for each and every person. We'll work with you to help you realise what's possible.",Epic Employment Service Inc,QLD,4068,EG70,DESB,2,,,,All Job Seekers,INDOOROOPILLY,"Unit 6, 66 Station Road",(07) 3378 0087,-27.50207652,152.97257940,,
"EPIC Assist has been helping people with disability secure meaningful, sustainable employment for almost 30 years. We understand the importance of staying on your employment journey for as long as you need us. We don’t walk away; we provide on-the-job, individualised support for each and every person. We'll work with you to help you realise what's possible.",Epic Employment Service Inc,QLD,4021,EG80,DESB,4,,,,All Job Seekers,Kippa-Ring,"Shops 4 and 5, 161 Sutton Street,",(07) 3283 8241,-27.22749184,153.11373604,,
"EPIC Assist has been helping people with disability secure meaningful, sustainable employment for almost 30 years. We understand the importance of staying on your employment journey for as long as you need us. We don’t walk away; we provide on-the-job, individualised support for each and every person. We'll work with you to help you realise what's possible.",Epic Employment Service Inc,QLD,4650,EG90,DESB,3,,,,All Job Seekers,Maryborough,Shop 12 200 Bazaar Street,(07) 4121 0362,-25.53834437,152.70322803,,
"EPIC Assist has been helping people with disability secure meaningful, sustainable employment for almost 30 years. We understand the importance of staying on your employment journey for as long as you need us. We don’t walk away; we provide on-the-job, individualised support for each and every person. We'll work with you to help you realise what's possible.",Epic Employment Service Inc,QLD,4211,EH00,DESB,3,,,,All Job Seekers,Nerang,3/23 Cotton Street,(07) 5596 5867,-27.98895502,153.33478756,,
"EPIC Assist has been helping people with disability secure meaningful, sustainable employment for almost 30 years. We understand the importance of staying on your employment journey for as long as you need us. We don’t walk away; we provide on-the-job, individualised support for each and every person. We'll work with you to help you realise what's possible.",Epic Employment Service Inc,QLD,4215,EH30,DESB,3,,,,All Job Seekers,Southport,Suite 8 Jandream Plaza 23 Nind Street,(07) 5532 6145,-27.96359374,153.41227481,,
"EPIC Assist has been helping people with disability secure meaningful, sustainable employment for almost 30 years. We understand the importance of staying on your employment journey for as long as you need us. We don’t walk away; we provide on-the-job, individualised support for each and every person. We'll work with you to help you realise what's possible.",Epic Employment Service Inc,QLD,4500,EH40,DESB,3,,,,All Job Seekers,Strathpine,"4A, 199 Gympie Road",1300 374 256,-27.31093541,152.99235135,,
,Your Employment Solutions,QLD,4558,EH88,DESB,3,,,,All Job Seekers,MAROOCHYDORE,"2B, 18-22 First Avenue",,-26.65335833,153.08181977,,
,Your Employment Solutions,QLD,4564,EH98,DESB,3,,,,All Job Seekers,MUDJIMBA,701 David Low Way,,-26.61287767,153.08667499,,
"This Help Employment & Training site operates on a full-time basis. Office hours are Monday to Friday 8:30am - 5pm, so give us a call or visit our website and let's get started!",HELP Employment & Training,QLD,4500,EI00,DESB,2,,,,All Job Seekers,Strathpine,"Shop 4, 411 Gympie Road",(07) 3868 9888,-27.30336045,152.98956079,,
,Your Employment Solutions,QLD,4560,EI08,DESB,3,,,,All Job Seekers,NAMBOUR,"C-Squared, 52-64 Curry Street",,-26.62369817,152.95877169,,
"This Help Employment & Training site operates on a full-time basis. Office hours are Monday to Friday 8:30am - 5pm, so give us a call or visit our website and let's get started!",HELP Employment & Training,QLD,4066,EI10,DESB,2,,,,All Job Seekers,Toowong,50 High Street,(07) 3371 0255,-27.48680155,152.99184443,,
,Your Employment Solutions,QLD,4566,EI18,DESB,3,,,,All Job Seekers,NOOSAVILLE,"6-8 Bartlett Street, C/O Salvation Army",,-26.41415832,153.04168103,,
,Your Employment Solutions,QLD,4555,EI28,DESB,3,,,,All Job Seekers,PALMWOODS,11 Main Street,,-26.68019960,152.88439683,,
,Your Employment Solutions,QLD,4556,EI38,DESB,4,,,,All Job Seekers,SIPPY DOWNS,Level 1 8 Fairfax Drive,,-26.72256778,153.08090405,,
,Your Employment Solutions,QLD,4575,EI48,DESB,3,,,,All Job Seekers,WARANA,179 Nicklin Way,,-26.71918391,153.13017447,,
,Status Works Pty Ltd,SA,5169,EI58,DESB,New,,,,All Job Seekers,SEAFORD,"Seaford Community Centre, Beechwwod Grove,",,-35.19074135,138.47460326,,
,The Maxima Group Incorporated,SA,5108,EI98,DESB,New,,,,All Job Seekers,SALISBURY,1B Gawler St,,-34.76304209,138.64354609,,
,Complete Personnel,SA,5606,EJ00,DESB,Rating unavailable,,,,All Job Seekers,Port Lincoln,Office 3 8-12 Napoleon Street,(08) 8682 1698,-34.72300499,135.85775632,,
,Atwork Australia Pty Ltd,WA,6065,EJ08,DESB,1,,,,Mental Health,WANNEROO,"Shop 34A, Wanneroo Central, 950 Wanneroo Rd,",1300 080 856,-31.75742314,115.81616478,,
,Atwork Australia Pty Ltd,WA,6065,EJ08,DESB,4,,,,All Job Seekers,WANNEROO,"Shop 34A, Wanneroo Central, 950 Wanneroo Rd,",1300 080 856,-31.75742314,115.81616478,,
,WISE Employment,VIC,3150,EJ58,DESB,3,,,,All Job Seekers,GLEN WAVERLEY,Uniting Church Hall 10-12 Bogong Ave,,-37.88158988,145.16818189,,
,WISE Employment,VIC,3189,EJ68,DESB,3,,,,All Job Seekers,MOORABBIN,Kingston Art Centre 979 Nepean Hwy,,-37.94144518,145.05778651,,
,WISE Employment Ltd,VIC,3195,EJ98,DESB,3,,,,All Job Seekers,ASPENDALE,Aspendale Community Gardens 103 - 105 Kearney Drive,,-38.02193538,145.10255367,,
,WISE Employment Ltd,VIC,3797,EK08,DESB,3,,,,All Job Seekers,YARRA JUNCTION,Upper Yarra Family Centre 2444 Warburton Way,,-37.79389691,145.62538223,,
,WISE Employment Ltd,VIC,3777,EK28,DESB,3,,,,All Job Seekers,HEALESVILLE,Healesville Living and Learning Centre 1 Badger Creek Road,,-37.65536187,145.52384828,,
,WISE Employment Ltd,VIC,3000,EK58,DESB,2,,,,All Job Seekers,MELBOURNE,21 Degraves Street,,-37.82503941,144.97151194,,
"ECHO’s aim is to get you a job.
We welcome people from a range of backgrounds and disability. 
We provide personalised case management services supporting choice and decision making.
Our services are flexible and respectful helping you on your journey to employment.

We look forward to working with you.",ECHO,VIC,3805,EK60,DESB,4,,,,All Job Seekers,Narre Warren,6 / 418 Princes Highway,(03) 8790 1621,-38.02485455,145.30538589,,
,WISE Employment Ltd,VIC,3182,EK68,DESB,2,,,,All Job Seekers,ST KILDA,Uniting Church Hall 163 Chapel Street,,-37.86368632,144.98179854,,
,WISE Employment Ltd,VIC,3207,EK78,DESB,2,,,,All Job Seekers,PORT MELBOURNE,Port Melbourne Neighbourhood Community Centre 154 Liardet Street,,-37.83300278,144.92163756,,
,Job Prospects,VIC,3076,EL20,DESB,3,,,,All Job Seekers,Epping,"Level 1, 769 High Street",(03) 8401 4801,-37.64872785,145.02541657,,
,Job Prospects,VIC,3011,EL40,DESB,1,,,,All Job Seekers,Footscray,Lvl1 109-111 Nicholson St (entry via Paisley St),(03) 9689 1715,-37.80069548,144.89961026,,
,Job Prospects,VIC,3084,EL50,DESB,3,,,,All Job Seekers,Heidelberg,Level 2 104 Burgundy Street,(03) 9455 3910,-37.75611292,145.06656640,,
,Job Prospects,SA,5043,EL60,DESB,3,,,,All Job Seekers,Marion,Level 8 Marion Shopping Towers Diagonal Road,(08) 8358 3384,-35.00636816,138.55349756,,
,Job Prospects,VIC,3039,EL70,DESB,1,,,,All Job Seekers,Moonee Ponds,720 Mt Alexander Road,(03) 9372 9393,-37.76810905,144.92540167,,
,Job Prospects,SA,5290,EL90,DESB,2,,,,All Job Seekers,Mount Gambier,5 Percy Street,(08) 8724 0600,-37.82809930,140.78258617,,
,Job Prospects,VIC,3072,EM00,DESB,2,,,,All Job Seekers,Preston,Level 2 293 High Street,(03) 9495 0345,-37.74317314,145.00277903,,
,Job Prospects,VIC,3429,EM10,DESB,1,,,,All Job Seekers,Sunbury,22A O'Shanassy Street,(03) 8746 8760,-37.57970300,144.73075300,,
,Job Prospects,VIC,3020,EM20,DESB,1,,,,All Job Seekers,Sunshine,Ground Floor 149 Anderson Road,(03) 9036 5375,-37.78080131,144.82786510,,
,Job Prospects,SA,5501,EM30,DESB,3,,,,All Job Seekers,TWO WELLS,Council Chambers 65 Old Port Wakefield Road,(08) 7522 2350,-34.60203547,138.52472018,,
,Your Employment Success,SA,5000,EM38,DESB,New,,,,Deaf and Hearing Impaired,ADELAIDE,Knapman House 230 Pirie Street,,-34.92867646,138.60102724,,
,Job Prospects,VIC,3038,EM40,DESB,3,,,,All Job Seekers,Watergardens,The Office Precinct Level 1/399 Melton Highway,(03) 8390 9950,-37.70006225,144.77421674,,
,MJP,SA,5015,EM48,DESB,New,,,,"Neurological, ABI, Psych, Intellectual & Learning",PORT ADELAIDE,27-29 McLaren Parade,,-34.83426943,138.51236021,,
"At WISE Employment we specialise in helping people with diverse backgrounds find meaningful work. Through our DES program, we focus on what you’re good at and match your skills to the right job. We continue to support you as your confidence grows and you adjust to your new workplace. Our local team would love to meet you – let’s chat!",WISE Employment,VIC,3810,EN10,DESB,2,,,,All Job Seekers,Pakenham,1A/2A 56 John Street,(03) 5940 6000,-38.07226295,145.48524475,,
"At WISE Employment we specialise in helping people with diverse backgrounds find meaningful work. Through our DES program, we focus on what you’re good at and match your skills to the right job. We continue to support you as your confidence grows and you adjust to your new workplace. Our local team would love to meet you – let’s chat!",WISE Employment,VIC,3939,EN20,DESB,3,,,,All Job Seekers,Rosebud,15/991 Point Nepean Road,(03) 5950 4400,-38.37372174,144.91359443,,
"At WISE Employment we specialise in helping people with diverse backgrounds find meaningful work. Through our DES program, we focus on what you’re good at and match your skills to the right job. We continue to support you as your confidence grows and you adjust to your new workplace. Our local team would love to meet you – let’s chat!",WISE Employment,NSW,2777,EN40,DESB,3,,,,All Job Seekers,Springwood,"Rooms 6 and 7 Unit 3, 163 Macquarie Road",(02) 8633 2525,-33.69856947,150.56608267,,
"At WISE Employment we specialise in helping people with diverse backgrounds find meaningful work. Through our DES program, we focus on what you’re good at and match your skills to the right job. We continue to support you as your confidence grows and you adjust to your new workplace. Our local team would love to meet you – let’s chat!",WISE Employment,VIC,3429,EN60,DESB,3,,,,All Job Seekers,Sunbury,24 O'Shanassy Street,(03) 9218 7400,-37.57993582,144.73059938,,
"At WISE Employment we specialise in helping people with diverse backgrounds find meaningful work. Through our DES program, we focus on what you’re good at and match your skills to the right job. We continue to support you as your confidence grows and you adjust to your new workplace. Our local team would love to meet you – let’s chat!",WISE Employment,NSW,2756,EN90,DESB,3,,,,All Job Seekers,Windsor,248 George Street Windsor,(02) 8808 3700,-33.60805353,150.81909852,,
,atWork Australia Pty Ltd,SA,5154,EN98,DESB,New,,,,All Job Seekers,ALDGATE,"The Hut, 1 Euston Road",,-35.01631904,138.73946649,,
,CoAct/Workways,NSW,2518,ETUZ,DESB,4,,,,All Job Seekers,CORRIMAL,Suite 3 112A Railway Street,(02) 4207 3400,-34.36813681,150.89238483,,
,CoAct/Workways,NSW,2518,ETUZ,DESB,5,,,,Mental Health,CORRIMAL,Suite 3 112A Railway Street,(02) 4207 3400,-34.36813681,150.89238483,,
,WDEA Works,VIC,3233,F760,DESB,4,,,,All Job Seekers,Apollo Bay,93 Great Ocean Road,(03) 5231 3411,-38.75724165,143.66945875,,
,WDEA Works,VIC,3377,F770,DESB,3,,,,All Job Seekers,Ararat,68 High Street,(03) 5352 3611,-37.28259213,142.93099120,,
,WDEA Works,VIC,3350,F780,DESB,3,,,,All Job Seekers,Ballarat,219 Mair Street,(03) 5331 6566,-37.55986287,143.85720391,,
,WDEA Works,VIC,3260,F790,DESB,New,,,,All Job Seekers,Camperdown,2A Pike Street,(03) 5231 3411,-38.23212625,143.14783426,,
,WDEA Works,VIC,3311,F800,DESB,4,,,,All Job Seekers,Casterton,31 Henty Street outreach from Hamilton,(03) 5571 2443,-37.60312546,141.33181010,,
,WDEA Works,VIC,3460,F810,DESB,3,,,,All Job Seekers,DAYLESFORD,13 Camp St,(03) 5331 6566,-37.34188834,144.14589386,,
,WDEA Works,VIC,3304,F820,DESB,4,,,,All Job Seekers,Heywood,21 Scott Street,(03) 5521 7959,-38.13227859,141.62881405,,
,WDEA Works,VIC,3400,F830,DESB,3,,,,All Job Seekers,Horsham,31 Wilson Street,(03) 5382 6100,-36.71762248,142.20148042,,
,WDEA Works,VIC,3380,F850,DESB,5,,,,All Job Seekers,Stawell,152 Main Street,(03) 5358 2799,-37.05519000,142.78233829,,
,WDEA Works,VIC,3264,F860,DESB,4,,,,All Job Seekers,Terang,Josie Black Community Health Centre 66 High Street,(03) 5592 0300,-38.24048144,142.91701048,,
"   Outlook Employment has been helping people with disability secure meaningful, sustainable employment since 1993. During that time we have made a positive difference in the lives of thousands of job seekers. We find jobs that match your skills and interests. We provide individualised support for each and every person who comes to us.   ",Outlook Employment,VIC,3805,FBNZ,DESB,3,,,,All Job Seekers,NARRE WARREN,Suite 2 418 Princes Highway,(03) 9705 6445,-38.02476908,145.30526281,,
"DVJS (formerly Dandenong Valley Job Support) has been assisting job seekers with disabilities access and maintain open employment since 1993 and is responsible for thousands of positive life-changing experiences. WE find jobs that match your skills and interests and support you and your employer to ensure that the job, is not just a job but a career.",DVJS Employment Solutions,VIC,3175,FBZZ,DESB,5,,,,All Job Seekers,DANDENONG,Ground Floor M+K Building 40-42 Scott Street,1300 385 738,-37.98614280,145.21066393,,
"ECHO’s aim is to get you a job.
We welcome people from a range of backgrounds and disability. 
We provide personalised case management services supporting choice and decision making.
Our services are flexible and respectful helping you on your journey to employment.

We look forward to working with you.",ECHO,VIC,3128,FCHZ,DESB,5,,,,All Job Seekers,BOX HILL,Level 3 2a Cambridge Street,(03) 9210 2100,-37.82074041,145.12293675,,
,Jobs Australia,NSW,2343,FD20,DESB,New,,,,All Job Seekers,Quirindi,207 George Street,(02) 6746 2320,-31.50582748,150.68091052,,
"MAX Employment assists thousands of customers into work every year, delivering services from 250 offices across every Australian state and territory. Through our business and community network we link customers to jobs across multiple industries.We deliver Disability Employment Services on behalf of the Australian Govt.
This site operates Mon-Fri 8:30am-5pm",MAX Employment,NSW,2166,FD40,DESB,5,,,,All Job Seekers,Cabramatta,Office 23 Level 1 101-103 John Street,(02) 8707 2600,-33.89466871,150.93514124,,
